{
"type": "FeatureCollection",
"name": "grille_100m",
"crs": { "type": "name", "properties": { "name": "urn:ogc:def:crs:OGC:1.3:CRS84" } },
"xy_coordinate_resolution": 1e-07,
"features": [
{ "type": "Feature", "properties": { "grid_id": 1, "cell_id": "c_01_00", "quartier_majoritaire": "Quartier 4", "share_in_quartiers": 0.0422 }, "geometry": { "type": "Polygon", "coordinates": [ [ [ -17.0133068, 14.7752438 ], [ -17.0133151, 14.7761474 ], [ -17.0142437, 14.7761393 ], [ -17.0142354, 14.7752357 ], [ -17.0133068, 14.7752438 ] ] ] } },
{ "type": "Feature", "properties": { "grid_id": 2, "cell_id": "c_02_00", "quartier_majoritaire": "Quartier 4", "share_in_quartiers": 0.0626 }, "geometry": { "type": "Polygon", "coordinates": [ [ [ -17.0123781, 14.7752519 ], [ -17.0123865, 14.7761555 ], [ -17.0133151, 14.7761474 ], [ -17.0133068, 14.7752438 ], [ -17.0123781, 14.7752519 ] ] ] } },
{ "type": "Feature", "properties": { "grid_id": 3, "cell_id": "c_03_00", "quartier_majoritaire": "Quartier 4", "share_in_quartiers": 0.0706 }, "geometry": { "type": "Polygon", "coordinates": [ [ [ -17.0114495, 14.77526 ], [ -17.0114578, 14.7761636 ], [ -17.0123865, 14.7761555 ], [ -17.0123781, 14.7752519 ], [ -17.0114495, 14.77526 ] ] ] } },
{ "type": "Feature", "properties": { "grid_id": 4, "cell_id": "c_04_00", "quartier_majoritaire": "Quartier 4", "share_in_quartiers": 0.0785 }, "geometry": { "type": "Polygon", "coordinates": [ [ [ -17.0105209, 14.7752681 ], [ -17.0105292, 14.7761716 ], [ -17.0114578, 14.7761636 ], [ -17.0114495, 14.77526 ], [ -17.0105209, 14.7752681 ] ] ] } },
{ "type": "Feature", "properties": { "grid_id": 5, "cell_id": "c_05_00", "quartier_majoritaire": "Quartier 4", "share_in_quartiers": 0.0864 }, "geometry": { "type": "Polygon", "coordinates": [ [ [ -17.0095923, 14.7752762 ], [ -17.0096006, 14.7761797 ], [ -17.0105292, 14.7761716 ], [ -17.0105209, 14.7752681 ], [ -17.0095923, 14.7752762 ] ] ] } },
{ "type": "Feature", "properties": { "grid_id": 6, "cell_id": "c_06_00", "quartier_majoritaire": "Quartier 4", "share_in_quartiers": 0.0943 }, "geometry": { "type": "Polygon", "coordinates": [ [ [ -17.0086636, 14.7752842 ], [ -17.0086719, 14.7761878 ], [ -17.0096006, 14.7761797 ], [ -17.0095923, 14.7752762 ], [ -17.0086636, 14.7752842 ] ] ] } },
{ "type": "Feature", "properties": { "grid_id": 7, "cell_id": "c_07_00", "quartier_majoritaire": "Quartier 4", "share_in_quartiers": 0.1022 }, "geometry": { "type": "Polygon", "coordinates": [ [ [ -17.007735, 14.7752923 ], [ -17.0077433, 14.7761959 ], [ -17.0086719, 14.7761878 ], [ -17.0086636, 14.7752842 ], [ -17.007735, 14.7752923 ] ] ] } },
{ "type": "Feature", "properties": { "grid_id": 8, "cell_id": "c_08_00", "quartier_majoritaire": "Quartier 4", "share_in_quartiers": 0.1101 }, "geometry": { "type": "Polygon", "coordinates": [ [ [ -17.0068064, 14.7753004 ], [ -17.0068147, 14.776204 ], [ -17.0077433, 14.7761959 ], [ -17.007735, 14.7752923 ], [ -17.0068064, 14.7753004 ] ] ] } },
{ "type": "Feature", "properties": { "grid_id": 9, "cell_id": "c_09_00", "quartier_majoritaire": "Quartier SC2", "share_in_quartiers": 0.118 }, "geometry": { "type": "Polygon", "coordinates": [ [ [ -17.0058777, 14.7753085 ], [ -17.005886, 14.7762121 ], [ -17.0068147, 14.776204 ], [ -17.0068064, 14.7753004 ], [ -17.0058777, 14.7753085 ] ] ] } },
{ "type": "Feature", "properties": { "grid_id": 10, "cell_id": "c_10_00", "quartier_majoritaire": "Quartier 5", "share_in_quartiers": 0.1259 }, "geometry": { "type": "Polygon", "coordinates": [ [ [ -17.0049491, 14.7753165 ], [ -17.0049574, 14.7762201 ], [ -17.005886, 14.7762121 ], [ -17.0058777, 14.7753085 ], [ -17.0049491, 14.7753165 ] ] ] } },
{ "type": "Feature", "properties": { "grid_id": 11, "cell_id": "c_11_00", "quartier_majoritaire": "Quartier 5", "share_in_quartiers": 0.1066 }, "geometry": { "type": "Polygon", "coordinates": [ [ [ -17.0040205, 14.7753246 ], [ -17.0040288, 14.7762282 ], [ -17.0049574, 14.7762201 ], [ -17.0049491, 14.7753165 ], [ -17.0040205, 14.7753246 ] ] ] } },
{ "type": "Feature", "properties": { "grid_id": 12, "cell_id": "c_01_01", "quartier_majoritaire": "Quartier 4", "share_in_quartiers": 0.7577 }, "geometry": { "type": "Polygon", "coordinates": [ [ [ -17.0132984, 14.7743402 ], [ -17.0133068, 14.7752438 ], [ -17.0142354, 14.7752357 ], [ -17.0142271, 14.7743321 ], [ -17.0132984, 14.7743402 ] ] ] } },
{ "type": "Feature", "properties": { "grid_id": 13, "cell_id": "c_02_01", "quartier_majoritaire": "Quartier 4", "share_in_quartiers": 1.0 }, "geometry": { "type": "Polygon", "coordinates": [ [ [ -17.0123698, 14.7743483 ], [ -17.0123781, 14.7752519 ], [ -17.0133068, 14.7752438 ], [ -17.0132984, 14.7743402 ], [ -17.0123698, 14.7743483 ] ] ] } },
{ "type": "Feature", "properties": { "grid_id": 14, "cell_id": "c_03_01", "quartier_majoritaire": "Quartier 4", "share_in_quartiers": 1.0 }, "geometry": { "type": "Polygon", "coordinates": [ [ [ -17.0114412, 14.7743564 ], [ -17.0114495, 14.77526 ], [ -17.0123781, 14.7752519 ], [ -17.0123698, 14.7743483 ], [ -17.0114412, 14.7743564 ] ] ] } },
{ "type": "Feature", "properties": { "grid_id": 15, "cell_id": "c_04_01", "quartier_majoritaire": "Quartier 4", "share_in_quartiers": 1.0 }, "geometry": { "type": "Polygon", "coordinates": [ [ [ -17.0105126, 14.7743645 ], [ -17.0105209, 14.7752681 ], [ -17.0114495, 14.77526 ], [ -17.0114412, 14.7743564 ], [ -17.0105126, 14.7743645 ] ] ] } },
{ "type": "Feature", "properties": { "grid_id": 16, "cell_id": "c_05_01", "quartier_majoritaire": "Quartier 4", "share_in_quartiers": 1.0 }, "geometry": { "type": "Polygon", "coordinates": [ [ [ -17.0095839, 14.7743726 ], [ -17.0095923, 14.7752762 ], [ -17.0105209, 14.7752681 ], [ -17.0105126, 14.7743645 ], [ -17.0095839, 14.7743726 ] ] ] } },
{ "type": "Feature", "properties": { "grid_id": 17, "cell_id": "c_06_01", "quartier_majoritaire": "Quartier 4", "share_in_quartiers": 1.0 }, "geometry": { "type": "Polygon", "coordinates": [ [ [ -17.0086553, 14.7743807 ], [ -17.0086636, 14.7752842 ], [ -17.0095923, 14.7752762 ], [ -17.0095839, 14.7743726 ], [ -17.0086553, 14.7743807 ] ] ] } },
{ "type": "Feature", "properties": { "grid_id": 18, "cell_id": "c_07_01", "quartier_majoritaire": "Quartier 4", "share_in_quartiers": 1.0 }, "geometry": { "type": "Polygon", "coordinates": [ [ [ -17.0077267, 14.7743887 ], [ -17.007735, 14.7752923 ], [ -17.0086636, 14.7752842 ], [ -17.0086553, 14.7743807 ], [ -17.0077267, 14.7743887 ] ] ] } },
{ "type": "Feature", "properties": { "grid_id": 19, "cell_id": "c_08_01", "quartier_majoritaire": "Quartier SC2", "share_in_quartiers": 1.0 }, "geometry": { "type": "Polygon", "coordinates": [ [ [ -17.0067981, 14.7743968 ], [ -17.0068064, 14.7753004 ], [ -17.007735, 14.7752923 ], [ -17.0077267, 14.7743887 ], [ -17.0067981, 14.7743968 ] ] ] } },
{ "type": "Feature", "properties": { "grid_id": 20, "cell_id": "c_09_01", "quartier_majoritaire": "Quartier SC2", "share_in_quartiers": 1.0 }, "geometry": { "type": "Polygon", "coordinates": [ [ [ -17.0058694, 14.7744049 ], [ -17.0058777, 14.7753085 ], [ -17.0068064, 14.7753004 ], [ -17.0067981, 14.7743968 ], [ -17.0058694, 14.7744049 ] ] ] } },
{ "type": "Feature", "properties": { "grid_id": 21, "cell_id": "c_10_01", "quartier_majoritaire": "Quartier 5", "share_in_quartiers": 1.0 }, "geometry": { "type": "Polygon", "coordinates": [ [ [ -17.0049408, 14.774413 ], [ -17.0049491, 14.7753165 ], [ -17.0058777, 14.7753085 ], [ -17.0058694, 14.7744049 ], [ -17.0049408, 14.774413 ] ] ] } },
{ "type": "Feature", "properties": { "grid_id": 22, "cell_id": "c_11_01", "quartier_majoritaire": "Quartier 5", "share_in_quartiers": 0.8012 }, "geometry": { "type": "Polygon", "coordinates": [ [ [ -17.0040122, 14.774421 ], [ -17.0040205, 14.7753246 ], [ -17.0049491, 14.7753165 ], [ -17.0049408, 14.774413 ], [ -17.0040122, 14.774421 ] ] ] } },
{ "type": "Feature", "properties": { "grid_id": 23, "cell_id": "c_01_02", "quartier_majoritaire": "Quartier SC2", "share_in_quartiers": 0.7576 }, "geometry": { "type": "Polygon", "coordinates": [ [ [ -17.0132901, 14.7734366 ], [ -17.0132984, 14.7743402 ], [ -17.0142271, 14.7743321 ], [ -17.0142187, 14.7734285 ], [ -17.0132901, 14.7734366 ] ] ] } },
{ "type": "Feature", "properties": { "grid_id": 24, "cell_id": "c_02_02", "quartier_majoritaire": "Quartier SC2", "share_in_quartiers": 1.0 }, "geometry": { "type": "Polygon", "coordinates": [ [ [ -17.0123615, 14.7734447 ], [ -17.0123698, 14.7743483 ], [ -17.0132984, 14.7743402 ], [ -17.0132901, 14.7734366 ], [ -17.0123615, 14.7734447 ] ] ] } },
{ "type": "Feature", "properties": { "grid_id": 25, "cell_id": "c_03_02", "quartier_majoritaire": "Quartier SC2", "share_in_quartiers": 1.0 }, "geometry": { "type": "Polygon", "coordinates": [ [ [ -17.0114329, 14.7734528 ], [ -17.0114412, 14.7743564 ], [ -17.0123698, 14.7743483 ], [ -17.0123615, 14.7734447 ], [ -17.0114329, 14.7734528 ] ] ] } },
{ "type": "Feature", "properties": { "grid_id": 26, "cell_id": "c_04_02", "quartier_majoritaire": "Quartier SC2", "share_in_quartiers": 1.0 }, "geometry": { "type": "Polygon", "coordinates": [ [ [ -17.0105043, 14.7734609 ], [ -17.0105126, 14.7743645 ], [ -17.0114412, 14.7743564 ], [ -17.0114329, 14.7734528 ], [ -17.0105043, 14.7734609 ] ] ] } },
{ "type": "Feature", "properties": { "grid_id": 27, "cell_id": "c_05_02", "quartier_majoritaire": "Quartier SC2", "share_in_quartiers": 1.0 }, "geometry": { "type": "Polygon", "coordinates": [ [ [ -17.0095756, 14.773469 ], [ -17.0095839, 14.7743726 ], [ -17.0105126, 14.7743645 ], [ -17.0105043, 14.7734609 ], [ -17.0095756, 14.773469 ] ] ] } },
{ "type": "Feature", "properties": { "grid_id": 28, "cell_id": "c_06_02", "quartier_majoritaire": "Quartier SC2", "share_in_quartiers": 1.0 }, "geometry": { "type": "Polygon", "coordinates": [ [ [ -17.008647, 14.7734771 ], [ -17.0086553, 14.7743807 ], [ -17.0095839, 14.7743726 ], [ -17.0095756, 14.773469 ], [ -17.008647, 14.7734771 ] ] ] } },
{ "type": "Feature", "properties": { "grid_id": 29, "cell_id": "c_07_02", "quartier_majoritaire": "Quartier 3", "share_in_quartiers": 1.0 }, "geometry": { "type": "Polygon", "coordinates": [ [ [ -17.0077184, 14.7734852 ], [ -17.0077267, 14.7743887 ], [ -17.0086553, 14.7743807 ], [ -17.008647, 14.7734771 ], [ -17.0077184, 14.7734852 ] ] ] } },
{ "type": "Feature", "properties": { "grid_id": 30, "cell_id": "c_08_02", "quartier_majoritaire": "Quartier 3", "share_in_quartiers": 1.0 }, "geometry": { "type": "Polygon", "coordinates": [ [ [ -17.0067898, 14.7734932 ], [ -17.0067981, 14.7743968 ], [ -17.0077267, 14.7743887 ], [ -17.0077184, 14.7734852 ], [ -17.0067898, 14.7734932 ] ] ] } },
{ "type": "Feature", "properties": { "grid_id": 31, "cell_id": "c_09_02", "quartier_majoritaire": "Quartier 3", "share_in_quartiers": 1.0 }, "geometry": { "type": "Polygon", "coordinates": [ [ [ -17.0058611, 14.7735013 ], [ -17.0058694, 14.7744049 ], [ -17.0067981, 14.7743968 ], [ -17.0067898, 14.7734932 ], [ -17.0058611, 14.7735013 ] ] ] } },
{ "type": "Feature", "properties": { "grid_id": 32, "cell_id": "c_10_02", "quartier_majoritaire": "Quartier 5", "share_in_quartiers": 1.0 }, "geometry": { "type": "Polygon", "coordinates": [ [ [ -17.0049325, 14.7735094 ], [ -17.0049408, 14.774413 ], [ -17.0058694, 14.7744049 ], [ -17.0058611, 14.7735013 ], [ -17.0049325, 14.7735094 ] ] ] } },
{ "type": "Feature", "properties": { "grid_id": 33, "cell_id": "c_11_02", "quartier_majoritaire": "Quartier 5", "share_in_quartiers": 0.8012 }, "geometry": { "type": "Polygon", "coordinates": [ [ [ -17.0040039, 14.7735174 ], [ -17.0040122, 14.774421 ], [ -17.0049408, 14.774413 ], [ -17.0049325, 14.7735094 ], [ -17.0040039, 14.7735174 ] ] ] } },
{ "type": "Feature", "properties": { "grid_id": 34, "cell_id": "c_01_03", "quartier_majoritaire": "Quartier 2", "share_in_quartiers": 0.7577 }, "geometry": { "type": "Polygon", "coordinates": [ [ [ -17.0132818, 14.772533 ], [ -17.0132901, 14.7734366 ], [ -17.0142187, 14.7734285 ], [ -17.0142104, 14.7725249 ], [ -17.0132818, 14.772533 ] ] ] } },
{ "type": "Feature", "properties": { "grid_id": 35, "cell_id": "c_02_03", "quartier_majoritaire": "Quartier 2", "share_in_quartiers": 1.0 }, "geometry": { "type": "Polygon", "coordinates": [ [ [ -17.0123532, 14.7725411 ], [ -17.0123615, 14.7734447 ], [ -17.0132901, 14.7734366 ], [ -17.0132818, 14.772533 ], [ -17.0123532, 14.7725411 ] ] ] } },
{ "type": "Feature", "properties": { "grid_id": 36, "cell_id": "c_03_03", "quartier_majoritaire": "Quartier 3", "share_in_quartiers": 1.0 }, "geometry": { "type": "Polygon", "coordinates": [ [ [ -17.0114246, 14.7725492 ], [ -17.0114329, 14.7734528 ], [ -17.0123615, 14.7734447 ], [ -17.0123532, 14.7725411 ], [ -17.0114246, 14.7725492 ] ] ] } },
{ "type": "Feature", "properties": { "grid_id": 37, "cell_id": "c_04_03", "quartier_majoritaire": "Quartier 3", "share_in_quartiers": 1.0 }, "geometry": { "type": "Polygon", "coordinates": [ [ [ -17.0104959, 14.7725573 ], [ -17.0105043, 14.7734609 ], [ -17.0114329, 14.7734528 ], [ -17.0114246, 14.7725492 ], [ -17.0104959, 14.7725573 ] ] ] } },
{ "type": "Feature", "properties": { "grid_id": 38, "cell_id": "c_05_03", "quartier_majoritaire": "Quartier 3", "share_in_quartiers": 1.0 }, "geometry": { "type": "Polygon", "coordinates": [ [ [ -17.0095673, 14.7725654 ], [ -17.0095756, 14.773469 ], [ -17.0105043, 14.7734609 ], [ -17.0104959, 14.7725573 ], [ -17.0095673, 14.7725654 ] ] ] } },
{ "type": "Feature", "properties": { "grid_id": 39, "cell_id": "c_06_03", "quartier_majoritaire": "Quartier 3", "share_in_quartiers": 1.0 }, "geometry": { "type": "Polygon", "coordinates": [ [ [ -17.0086387, 14.7725735 ], [ -17.008647, 14.7734771 ], [ -17.0095756, 14.773469 ], [ -17.0095673, 14.7725654 ], [ -17.0086387, 14.7725735 ] ] ] } },
{ "type": "Feature", "properties": { "grid_id": 40, "cell_id": "c_07_03", "quartier_majoritaire": "Quartier 3", "share_in_quartiers": 1.0 }, "geometry": { "type": "Polygon", "coordinates": [ [ [ -17.0077101, 14.7725816 ], [ -17.0077184, 14.7734852 ], [ -17.008647, 14.7734771 ], [ -17.0086387, 14.7725735 ], [ -17.0077101, 14.7725816 ] ] ] } },
{ "type": "Feature", "properties": { "grid_id": 41, "cell_id": "c_08_03", "quartier_majoritaire": "Quartier 3", "share_in_quartiers": 1.0 }, "geometry": { "type": "Polygon", "coordinates": [ [ [ -17.0067815, 14.7725896 ], [ -17.0067898, 14.7734932 ], [ -17.0077184, 14.7734852 ], [ -17.0077101, 14.7725816 ], [ -17.0067815, 14.7725896 ] ] ] } },
{ "type": "Feature", "properties": { "grid_id": 42, "cell_id": "c_09_03", "quartier_majoritaire": "Quartier 3", "share_in_quartiers": 1.0 }, "geometry": { "type": "Polygon", "coordinates": [ [ [ -17.0058529, 14.7725977 ], [ -17.0058611, 14.7735013 ], [ -17.0067898, 14.7734932 ], [ -17.0067815, 14.7725896 ], [ -17.0058529, 14.7725977 ] ] ] } },
{ "type": "Feature", "properties": { "grid_id": 43, "cell_id": "c_10_03", "quartier_majoritaire": "Quartier 5", "share_in_quartiers": 1.0 }, "geometry": { "type": "Polygon", "coordinates": [ [ [ -17.0049242, 14.7726058 ], [ -17.0049325, 14.7735094 ], [ -17.0058611, 14.7735013 ], [ -17.0058529, 14.7725977 ], [ -17.0049242, 14.7726058 ] ] ] } },
{ "type": "Feature", "properties": { "grid_id": 44, "cell_id": "c_11_03", "quartier_majoritaire": "Quartier 5", "share_in_quartiers": 0.8012 }, "geometry": { "type": "Polygon", "coordinates": [ [ [ -17.0039956, 14.7726138 ], [ -17.0040039, 14.7735174 ], [ -17.0049325, 14.7735094 ], [ -17.0049242, 14.7726058 ], [ -17.0039956, 14.7726138 ] ] ] } },
{ "type": "Feature", "properties": { "grid_id": 45, "cell_id": "c_01_04", "quartier_majoritaire": "Quartier 2", "share_in_quartiers": 0.7577 }, "geometry": { "type": "Polygon", "coordinates": [ [ [ -17.0132735, 14.7716295 ], [ -17.0132818, 14.772533 ], [ -17.0142104, 14.7725249 ], [ -17.0142021, 14.7716214 ], [ -17.0132735, 14.7716295 ] ] ] } },
{ "type": "Feature", "properties": { "grid_id": 46, "cell_id": "c_02_04", "quartier_majoritaire": "Quartier 2", "share_in_quartiers": 1.0 }, "geometry": { "type": "Polygon", "coordinates": [ [ [ -17.0123449, 14.7716376 ], [ -17.0123532, 14.7725411 ], [ -17.0132818, 14.772533 ], [ -17.0132735, 14.7716295 ], [ -17.0123449, 14.7716376 ] ] ] } },
{ "type": "Feature", "properties": { "grid_id": 47, "cell_id": "c_03_04", "quartier_majoritaire": "Quartier 3", "share_in_quartiers": 1.0 }, "geometry": { "type": "Polygon", "coordinates": [ [ [ -17.0114163, 14.7716457 ], [ -17.0114246, 14.7725492 ], [ -17.0123532, 14.7725411 ], [ -17.0123449, 14.7716376 ], [ -17.0114163, 14.7716457 ] ] ] } },
{ "type": "Feature", "properties": { "grid_id": 48, "cell_id": "c_04_04", "quartier_majoritaire": "Quartier 3", "share_in_quartiers": 1.0 }, "geometry": { "type": "Polygon", "coordinates": [ [ [ -17.0104876, 14.7716537 ], [ -17.0104959, 14.7725573 ], [ -17.0114246, 14.7725492 ], [ -17.0114163, 14.7716457 ], [ -17.0104876, 14.7716537 ] ] ] } },
{ "type": "Feature", "properties": { "grid_id": 49, "cell_id": "c_05_04", "quartier_majoritaire": "Quartier 3", "share_in_quartiers": 1.0 }, "geometry": { "type": "Polygon", "coordinates": [ [ [ -17.009559, 14.7716618 ], [ -17.0095673, 14.7725654 ], [ -17.0104959, 14.7725573 ], [ -17.0104876, 14.7716537 ], [ -17.009559, 14.7716618 ] ] ] } },
{ "type": "Feature", "properties": { "grid_id": 50, "cell_id": "c_06_04", "quartier_majoritaire": "Quartier 3", "share_in_quartiers": 1.0 }, "geometry": { "type": "Polygon", "coordinates": [ [ [ -17.0086304, 14.7716699 ], [ -17.0086387, 14.7725735 ], [ -17.0095673, 14.7725654 ], [ -17.009559, 14.7716618 ], [ -17.0086304, 14.7716699 ] ] ] } },
{ "type": "Feature", "properties": { "grid_id": 51, "cell_id": "c_07_04", "quartier_majoritaire": "Quartier 3", "share_in_quartiers": 1.0 }, "geometry": { "type": "Polygon", "coordinates": [ [ [ -17.0077018, 14.771678 ], [ -17.0077101, 14.7725816 ], [ -17.0086387, 14.7725735 ], [ -17.0086304, 14.7716699 ], [ -17.0077018, 14.771678 ] ] ] } },
{ "type": "Feature", "properties": { "grid_id": 52, "cell_id": "c_08_04", "quartier_majoritaire": "Quartier 3", "share_in_quartiers": 1.0 }, "geometry": { "type": "Polygon", "coordinates": [ [ [ -17.0067732, 14.7716861 ], [ -17.0067815, 14.7725896 ], [ -17.0077101, 14.7725816 ], [ -17.0077018, 14.771678 ], [ -17.0067732, 14.7716861 ] ] ] } },
{ "type": "Feature", "properties": { "grid_id": 53, "cell_id": "c_09_04", "quartier_majoritaire": "Quartier 3", "share_in_quartiers": 1.0 }, "geometry": { "type": "Polygon", "coordinates": [ [ [ -17.0058446, 14.7716941 ], [ -17.0058529, 14.7725977 ], [ -17.0067815, 14.7725896 ], [ -17.0067732, 14.7716861 ], [ -17.0058446, 14.7716941 ] ] ] } },
{ "type": "Feature", "properties": { "grid_id": 54, "cell_id": "c_10_04", "quartier_majoritaire": "Quartier 5", "share_in_quartiers": 1.0 }, "geometry": { "type": "Polygon", "coordinates": [ [ [ -17.0049159, 14.7717022 ], [ -17.0049242, 14.7726058 ], [ -17.0058529, 14.7725977 ], [ -17.0058446, 14.7716941 ], [ -17.0049159, 14.7717022 ] ] ] } },
{ "type": "Feature", "properties": { "grid_id": 55, "cell_id": "c_11_04", "quartier_majoritaire": "Servitude climatique 1", "share_in_quartiers": 0.8012 }, "geometry": { "type": "Polygon", "coordinates": [ [ [ -17.0039873, 14.7717103 ], [ -17.0039956, 14.7726138 ], [ -17.0049242, 14.7726058 ], [ -17.0049159, 14.7717022 ], [ -17.0039873, 14.7717103 ] ] ] } },
{ "type": "Feature", "properties": { "grid_id": 56, "cell_id": "c_01_05", "quartier_majoritaire": "Quartier 2", "share_in_quartiers": 0.7577 }, "geometry": { "type": "Polygon", "coordinates": [ [ [ -17.0132652, 14.7707259 ], [ -17.0132735, 14.7716295 ], [ -17.0142021, 14.7716214 ], [ -17.0141938, 14.7707178 ], [ -17.0132652, 14.7707259 ] ] ] } },
{ "type": "Feature", "properties": { "grid_id": 57, "cell_id": "c_02_05", "quartier_majoritaire": "Quartier 2", "share_in_quartiers": 1.0 }, "geometry": { "type": "Polygon", "coordinates": [ [ [ -17.0123365, 14.770734 ], [ -17.0123449, 14.7716376 ], [ -17.0132735, 14.7716295 ], [ -17.0132652, 14.7707259 ], [ -17.0123365, 14.770734 ] ] ] } },
{ "type": "Feature", "properties": { "grid_id": 58, "cell_id": "c_03_05", "quartier_majoritaire": "Quartier 3", "share_in_quartiers": 1.0 }, "geometry": { "type": "Polygon", "coordinates": [ [ [ -17.0114079, 14.7707421 ], [ -17.0114163, 14.7716457 ], [ -17.0123449, 14.7716376 ], [ -17.0123365, 14.770734 ], [ -17.0114079, 14.7707421 ] ] ] } },
{ "type": "Feature", "properties": { "grid_id": 59, "cell_id": "c_04_05", "quartier_majoritaire": "Quartier 3", "share_in_quartiers": 1.0 }, "geometry": { "type": "Polygon", "coordinates": [ [ [ -17.0104793, 14.7707502 ], [ -17.0104876, 14.7716537 ], [ -17.0114163, 14.7716457 ], [ -17.0114079, 14.7707421 ], [ -17.0104793, 14.7707502 ] ] ] } },
{ "type": "Feature", "properties": { "grid_id": 60, "cell_id": "c_05_05", "quartier_majoritaire": "Quartier 3", "share_in_quartiers": 1.0 }, "geometry": { "type": "Polygon", "coordinates": [ [ [ -17.0095507, 14.7707582 ], [ -17.009559, 14.7716618 ], [ -17.0104876, 14.7716537 ], [ -17.0104793, 14.7707502 ], [ -17.0095507, 14.7707582 ] ] ] } },
{ "type": "Feature", "properties": { "grid_id": 61, "cell_id": "c_06_05", "quartier_majoritaire": "Quartier 6", "share_in_quartiers": 1.0 }, "geometry": { "type": "Polygon", "coordinates": [ [ [ -17.0086221, 14.7707663 ], [ -17.0086304, 14.7716699 ], [ -17.009559, 14.7716618 ], [ -17.0095507, 14.7707582 ], [ -17.0086221, 14.7707663 ] ] ] } },
{ "type": "Feature", "properties": { "grid_id": 62, "cell_id": "c_07_05", "quartier_majoritaire": "Quartier 6", "share_in_quartiers": 1.0 }, "geometry": { "type": "Polygon", "coordinates": [ [ [ -17.0076935, 14.7707744 ], [ -17.0077018, 14.771678 ], [ -17.0086304, 14.7716699 ], [ -17.0086221, 14.7707663 ], [ -17.0076935, 14.7707744 ] ] ] } },
{ "type": "Feature", "properties": { "grid_id": 63, "cell_id": "c_08_05", "quartier_majoritaire": "Quartier 6", "share_in_quartiers": 1.0 }, "geometry": { "type": "Polygon", "coordinates": [ [ [ -17.0067649, 14.7707825 ], [ -17.0067732, 14.7716861 ], [ -17.0077018, 14.771678 ], [ -17.0076935, 14.7707744 ], [ -17.0067649, 14.7707825 ] ] ] } },
{ "type": "Feature", "properties": { "grid_id": 64, "cell_id": "c_09_05", "quartier_majoritaire": "Servitude climatique 1", "share_in_quartiers": 1.0 }, "geometry": { "type": "Polygon", "coordinates": [ [ [ -17.0058363, 14.7707906 ], [ -17.0058446, 14.7716941 ], [ -17.0067732, 14.7716861 ], [ -17.0067649, 14.7707825 ], [ -17.0058363, 14.7707906 ] ] ] } },
{ "type": "Feature", "properties": { "grid_id": 65, "cell_id": "c_10_05", "quartier_majoritaire": "Servitude climatique 1", "share_in_quartiers": 1.0 }, "geometry": { "type": "Polygon", "coordinates": [ [ [ -17.0049077, 14.7707986 ], [ -17.0049159, 14.7717022 ], [ -17.0058446, 14.7716941 ], [ -17.0058363, 14.7707906 ], [ -17.0049077, 14.7707986 ] ] ] } },
{ "type": "Feature", "properties": { "grid_id": 66, "cell_id": "c_11_05", "quartier_majoritaire": "Servitude climatique 1", "share_in_quartiers": 0.8012 }, "geometry": { "type": "Polygon", "coordinates": [ [ [ -17.003979, 14.7708067 ], [ -17.0039873, 14.7717103 ], [ -17.0049159, 14.7717022 ], [ -17.0049077, 14.7707986 ], [ -17.003979, 14.7708067 ] ] ] } },
{ "type": "Feature", "properties": { "grid_id": 67, "cell_id": "c_01_06", "quartier_majoritaire": "Servitude climatique 1", "share_in_quartiers": 0.7577 }, "geometry": { "type": "Polygon", "coordinates": [ [ [ -17.0132568, 14.7698223 ], [ -17.0132652, 14.7707259 ], [ -17.0141938, 14.7707178 ], [ -17.0141854, 14.7698142 ], [ -17.0132568, 14.7698223 ] ] ] } },
{ "type": "Feature", "properties": { "grid_id": 68, "cell_id": "c_02_06", "quartier_majoritaire": "Servitude climatique 1", "share_in_quartiers": 0.9953 }, "geometry": { "type": "Polygon", "coordinates": [ [ [ -17.0123282, 14.7698304 ], [ -17.0123365, 14.770734 ], [ -17.0132652, 14.7707259 ], [ -17.0132568, 14.7698223 ], [ -17.0123282, 14.7698304 ] ] ] } },
{ "type": "Feature", "properties": { "grid_id": 69, "cell_id": "c_03_06", "quartier_majoritaire": "Quartier 2", "share_in_quartiers": 1.0 }, "geometry": { "type": "Polygon", "coordinates": [ [ [ -17.0113996, 14.7698385 ], [ -17.0114079, 14.7707421 ], [ -17.0123365, 14.770734 ], [ -17.0123282, 14.7698304 ], [ -17.0113996, 14.7698385 ] ] ] } },
{ "type": "Feature", "properties": { "grid_id": 70, "cell_id": "c_04_06", "quartier_majoritaire": "Quartier 2", "share_in_quartiers": 1.0 }, "geometry": { "type": "Polygon", "coordinates": [ [ [ -17.010471, 14.7698466 ], [ -17.0104793, 14.7707502 ], [ -17.0114079, 14.7707421 ], [ -17.0113996, 14.7698385 ], [ -17.010471, 14.7698466 ] ] ] } },
{ "type": "Feature", "properties": { "grid_id": 71, "cell_id": "c_05_06", "quartier_majoritaire": "Quartier 6", "share_in_quartiers": 0.9997 }, "geometry": { "type": "Polygon", "coordinates": [ [ [ -17.0095424, 14.7698547 ], [ -17.0095507, 14.7707582 ], [ -17.0104793, 14.7707502 ], [ -17.010471, 14.7698466 ], [ -17.0095424, 14.7698547 ] ] ] } },
{ "type": "Feature", "properties": { "grid_id": 72, "cell_id": "c_06_06", "quartier_majoritaire": "Servitude climatique 1", "share_in_quartiers": 1.0 }, "geometry": { "type": "Polygon", "coordinates": [ [ [ -17.0086138, 14.7698627 ], [ -17.0086221, 14.7707663 ], [ -17.0095507, 14.7707582 ], [ -17.0095424, 14.7698547 ], [ -17.0086138, 14.7698627 ] ] ] } },
{ "type": "Feature", "properties": { "grid_id": 73, "cell_id": "c_07_06", "quartier_majoritaire": "Servitude climatique 1", "share_in_quartiers": 1.0 }, "geometry": { "type": "Polygon", "coordinates": [ [ [ -17.0076852, 14.7698708 ], [ -17.0076935, 14.7707744 ], [ -17.0086221, 14.7707663 ], [ -17.0086138, 14.7698627 ], [ -17.0076852, 14.7698708 ] ] ] } },
{ "type": "Feature", "properties": { "grid_id": 74, "cell_id": "c_08_06", "quartier_majoritaire": "Quartier 1", "share_in_quartiers": 1.0 }, "geometry": { "type": "Polygon", "coordinates": [ [ [ -17.0067566, 14.7698789 ], [ -17.0067649, 14.7707825 ], [ -17.0076935, 14.7707744 ], [ -17.0076852, 14.7698708 ], [ -17.0067566, 14.7698789 ] ] ] } },
{ "type": "Feature", "properties": { "grid_id": 75, "cell_id": "c_09_06", "quartier_majoritaire": "Quartier 1", "share_in_quartiers": 1.0 }, "geometry": { "type": "Polygon", "coordinates": [ [ [ -17.005828, 14.769887 ], [ -17.0058363, 14.7707906 ], [ -17.0067649, 14.7707825 ], [ -17.0067566, 14.7698789 ], [ -17.005828, 14.769887 ] ] ] } },
{ "type": "Feature", "properties": { "grid_id": 76, "cell_id": "c_10_06", "quartier_majoritaire": "Quartier 1", "share_in_quartiers": 1.0 }, "geometry": { "type": "Polygon", "coordinates": [ [ [ -17.0048994, 14.769895 ], [ -17.0049077, 14.7707986 ], [ -17.0058363, 14.7707906 ], [ -17.005828, 14.769887 ], [ -17.0048994, 14.769895 ] ] ] } },
{ "type": "Feature", "properties": { "grid_id": 77, "cell_id": "c_11_06", "quartier_majoritaire": "Quartier 1", "share_in_quartiers": 0.8012 }, "geometry": { "type": "Polygon", "coordinates": [ [ [ -17.0039708, 14.7699031 ], [ -17.003979, 14.7708067 ], [ -17.0049077, 14.7707986 ], [ -17.0048994, 14.769895 ], [ -17.0039708, 14.7699031 ] ] ] } },
{ "type": "Feature", "properties": { "grid_id": 78, "cell_id": "c_01_07", "quartier_majoritaire": "Servitude climatique 1", "share_in_quartiers": 0.7577 }, "geometry": { "type": "Polygon", "coordinates": [ [ [ -17.0132485, 14.7689187 ], [ -17.0132568, 14.7698223 ], [ -17.0141854, 14.7698142 ], [ -17.0141771, 14.7689106 ], [ -17.0132485, 14.7689187 ] ] ] } },
{ "type": "Feature", "properties": { "grid_id": 79, "cell_id": "c_02_07", "quartier_majoritaire": "Servitude climatique 1", "share_in_quartiers": 0.9996 }, "geometry": { "type": "Polygon", "coordinates": [ [ [ -17.0123199, 14.7689268 ], [ -17.0123282, 14.7698304 ], [ -17.0132568, 14.7698223 ], [ -17.0132485, 14.7689187 ], [ -17.0123199, 14.7689268 ] ] ] } },
{ "type": "Feature", "properties": { "grid_id": 80, "cell_id": "c_03_07", "quartier_majoritaire": "Quartier 2", "share_in_quartiers": 1.0 }, "geometry": { "type": "Polygon", "coordinates": [ [ [ -17.0113913, 14.7689349 ], [ -17.0113996, 14.7698385 ], [ -17.0123282, 14.7698304 ], [ -17.0123199, 14.7689268 ], [ -17.0113913, 14.7689349 ] ] ] } },
{ "type": "Feature", "properties": { "grid_id": 81, "cell_id": "c_04_07", "quartier_majoritaire": "Quartier 2", "share_in_quartiers": 1.0 }, "geometry": { "type": "Polygon", "coordinates": [ [ [ -17.0104627, 14.768943 ], [ -17.010471, 14.7698466 ], [ -17.0113996, 14.7698385 ], [ -17.0113913, 14.7689349 ], [ -17.0104627, 14.768943 ] ] ] } },
{ "type": "Feature", "properties": { "grid_id": 82, "cell_id": "c_05_07", "quartier_majoritaire": "Servitude climatique 1", "share_in_quartiers": 0.9996 }, "geometry": { "type": "Polygon", "coordinates": [ [ [ -17.0095341, 14.7689511 ], [ -17.0095424, 14.7698547 ], [ -17.010471, 14.7698466 ], [ -17.0104627, 14.768943 ], [ -17.0095341, 14.7689511 ] ] ] } },
{ "type": "Feature", "properties": { "grid_id": 83, "cell_id": "c_06_07", "quartier_majoritaire": "Servitude climatique 1", "share_in_quartiers": 1.0 }, "geometry": { "type": "Polygon", "coordinates": [ [ [ -17.0086055, 14.7689592 ], [ -17.0086138, 14.7698627 ], [ -17.0095424, 14.7698547 ], [ -17.0095341, 14.7689511 ], [ -17.0086055, 14.7689592 ] ] ] } },
{ "type": "Feature", "properties": { "grid_id": 84, "cell_id": "c_07_07", "quartier_majoritaire": "Quartier 1", "share_in_quartiers": 1.0 }, "geometry": { "type": "Polygon", "coordinates": [ [ [ -17.0076769, 14.7689672 ], [ -17.0076852, 14.7698708 ], [ -17.0086138, 14.7698627 ], [ -17.0086055, 14.7689592 ], [ -17.0076769, 14.7689672 ] ] ] } },
{ "type": "Feature", "properties": { "grid_id": 85, "cell_id": "c_08_07", "quartier_majoritaire": "Quartier 1", "share_in_quartiers": 1.0 }, "geometry": { "type": "Polygon", "coordinates": [ [ [ -17.0067483, 14.7689753 ], [ -17.0067566, 14.7698789 ], [ -17.0076852, 14.7698708 ], [ -17.0076769, 14.7689672 ], [ -17.0067483, 14.7689753 ] ] ] } },
{ "type": "Feature", "properties": { "grid_id": 86, "cell_id": "c_09_07", "quartier_majoritaire": "Quartier 1", "share_in_quartiers": 1.0 }, "geometry": { "type": "Polygon", "coordinates": [ [ [ -17.0058197, 14.7689834 ], [ -17.005828, 14.769887 ], [ -17.0067566, 14.7698789 ], [ -17.0067483, 14.7689753 ], [ -17.0058197, 14.7689834 ] ] ] } },
{ "type": "Feature", "properties": { "grid_id": 87, "cell_id": "c_10_07", "quartier_majoritaire": "Quartier 1", "share_in_quartiers": 1.0 }, "geometry": { "type": "Polygon", "coordinates": [ [ [ -17.0048911, 14.7689914 ], [ -17.0048994, 14.769895 ], [ -17.005828, 14.769887 ], [ -17.0058197, 14.7689834 ], [ -17.0048911, 14.7689914 ] ] ] } },
{ "type": "Feature", "properties": { "grid_id": 88, "cell_id": "c_11_07", "quartier_majoritaire": "Quartier 1", "share_in_quartiers": 0.8012 }, "geometry": { "type": "Polygon", "coordinates": [ [ [ -17.0039625, 14.7689995 ], [ -17.0039708, 14.7699031 ], [ -17.0048994, 14.769895 ], [ -17.0048911, 14.7689914 ], [ -17.0039625, 14.7689995 ] ] ] } },
{ "type": "Feature", "properties": { "grid_id": 89, "cell_id": "c_01_08", "quartier_majoritaire": "Servitude climatique 1", "share_in_quartiers": 0.7577 }, "geometry": { "type": "Polygon", "coordinates": [ [ [ -17.0132402, 14.7680151 ], [ -17.0132485, 14.7689187 ], [ -17.0141771, 14.7689106 ], [ -17.0141688, 14.768007 ], [ -17.0132402, 14.7680151 ] ] ] } },
{ "type": "Feature", "properties": { "grid_id": 90, "cell_id": "c_02_08", "quartier_majoritaire": "Servitude climatique 1", "share_in_quartiers": 1.0 }, "geometry": { "type": "Polygon", "coordinates": [ [ [ -17.0123116, 14.7680232 ], [ -17.0123199, 14.7689268 ], [ -17.0132485, 14.7689187 ], [ -17.0132402, 14.7680151 ], [ -17.0123116, 14.7680232 ] ] ] } },
{ "type": "Feature", "properties": { "grid_id": 91, "cell_id": "c_03_08", "quartier_majoritaire": "Servitude climatique 1", "share_in_quartiers": 1.0 }, "geometry": { "type": "Polygon", "coordinates": [ [ [ -17.011383, 14.7680313 ], [ -17.0113913, 14.7689349 ], [ -17.0123199, 14.7689268 ], [ -17.0123116, 14.7680232 ], [ -17.011383, 14.7680313 ] ] ] } },
{ "type": "Feature", "properties": { "grid_id": 92, "cell_id": "c_04_08", "quartier_majoritaire": "Servitude climatique 1", "share_in_quartiers": 1.0 }, "geometry": { "type": "Polygon", "coordinates": [ [ [ -17.0104544, 14.7680394 ], [ -17.0104627, 14.768943 ], [ -17.0113913, 14.7689349 ], [ -17.011383, 14.7680313 ], [ -17.0104544, 14.7680394 ] ] ] } },
{ "type": "Feature", "properties": { "grid_id": 93, "cell_id": "c_05_08", "quartier_majoritaire": "Servitude climatique 1", "share_in_quartiers": 1.0 }, "geometry": { "type": "Polygon", "coordinates": [ [ [ -17.0095258, 14.7680475 ], [ -17.0095341, 14.7689511 ], [ -17.0104627, 14.768943 ], [ -17.0104544, 14.7680394 ], [ -17.0095258, 14.7680475 ] ] ] } },
{ "type": "Feature", "properties": { "grid_id": 94, "cell_id": "c_06_08", "quartier_majoritaire": "Quartier A", "share_in_quartiers": 1.0 }, "geometry": { "type": "Polygon", "coordinates": [ [ [ -17.0085972, 14.7680556 ], [ -17.0086055, 14.7689592 ], [ -17.0095341, 14.7689511 ], [ -17.0095258, 14.7680475 ], [ -17.0085972, 14.7680556 ] ] ] } },
{ "type": "Feature", "properties": { "grid_id": 95, "cell_id": "c_07_08", "quartier_majoritaire": "Quartier A", "share_in_quartiers": 1.0 }, "geometry": { "type": "Polygon", "coordinates": [ [ [ -17.0076686, 14.7680637 ], [ -17.0076769, 14.7689672 ], [ -17.0086055, 14.7689592 ], [ -17.0085972, 14.7680556 ], [ -17.0076686, 14.7680637 ] ] ] } },
{ "type": "Feature", "properties": { "grid_id": 96, "cell_id": "c_08_08", "quartier_majoritaire": "Quartier A", "share_in_quartiers": 1.0 }, "geometry": { "type": "Polygon", "coordinates": [ [ [ -17.00674, 14.7680717 ], [ -17.0067483, 14.7689753 ], [ -17.0076769, 14.7689672 ], [ -17.0076686, 14.7680637 ], [ -17.00674, 14.7680717 ] ] ] } },
{ "type": "Feature", "properties": { "grid_id": 97, "cell_id": "c_09_08", "quartier_majoritaire": "Quartier A", "share_in_quartiers": 1.0 }, "geometry": { "type": "Polygon", "coordinates": [ [ [ -17.0058114, 14.7680798 ], [ -17.0058197, 14.7689834 ], [ -17.0067483, 14.7689753 ], [ -17.00674, 14.7680717 ], [ -17.0058114, 14.7680798 ] ] ] } },
{ "type": "Feature", "properties": { "grid_id": 98, "cell_id": "c_10_08", "quartier_majoritaire": "Quartier A", "share_in_quartiers": 1.0 }, "geometry": { "type": "Polygon", "coordinates": [ [ [ -17.0048828, 14.7680879 ], [ -17.0048911, 14.7689914 ], [ -17.0058197, 14.7689834 ], [ -17.0058114, 14.7680798 ], [ -17.0048828, 14.7680879 ] ] ] } },
{ "type": "Feature", "properties": { "grid_id": 99, "cell_id": "c_11_08", "quartier_majoritaire": "Quartier A", "share_in_quartiers": 0.8012 }, "geometry": { "type": "Polygon", "coordinates": [ [ [ -17.0039542, 14.7680959 ], [ -17.0039625, 14.7689995 ], [ -17.0048911, 14.7689914 ], [ -17.0048828, 14.7680879 ], [ -17.0039542, 14.7680959 ] ] ] } },
{ "type": "Feature", "properties": { "grid_id": 100, "cell_id": "c_01_09", "quartier_majoritaire": "Servitude climatique 1", "share_in_quartiers": 0.7577 }, "geometry": { "type": "Polygon", "coordinates": [ [ [ -17.0132319, 14.7671116 ], [ -17.0132402, 14.7680151 ], [ -17.0141688, 14.768007 ], [ -17.0141605, 14.7671035 ], [ -17.0132319, 14.7671116 ] ] ] } },
{ "type": "Feature", "properties": { "grid_id": 101, "cell_id": "c_02_09", "quartier_majoritaire": "Servitude climatique 1", "share_in_quartiers": 1.0 }, "geometry": { "type": "Polygon", "coordinates": [ [ [ -17.0123033, 14.7671197 ], [ -17.0123116, 14.7680232 ], [ -17.0132402, 14.7680151 ], [ -17.0132319, 14.7671116 ], [ -17.0123033, 14.7671197 ] ] ] } },
{ "type": "Feature", "properties": { "grid_id": 102, "cell_id": "c_03_09", "quartier_majoritaire": "Servitude climatique 1", "share_in_quartiers": 1.0 }, "geometry": { "type": "Polygon", "coordinates": [ [ [ -17.0113747, 14.7671278 ], [ -17.011383, 14.7680313 ], [ -17.0123116, 14.7680232 ], [ -17.0123033, 14.7671197 ], [ -17.0113747, 14.7671278 ] ] ] } },
{ "type": "Feature", "properties": { "grid_id": 103, "cell_id": "c_04_09", "quartier_majoritaire": "Servitude climatique 1", "share_in_quartiers": 1.0 }, "geometry": { "type": "Polygon", "coordinates": [ [ [ -17.0104461, 14.7671358 ], [ -17.0104544, 14.7680394 ], [ -17.011383, 14.7680313 ], [ -17.0113747, 14.7671278 ], [ -17.0104461, 14.7671358 ] ] ] } },
{ "type": "Feature", "properties": { "grid_id": 104, "cell_id": "c_05_09", "quartier_majoritaire": "Quartier A", "share_in_quartiers": 1.0 }, "geometry": { "type": "Polygon", "coordinates": [ [ [ -17.0095175, 14.7671439 ], [ -17.0095258, 14.7680475 ], [ -17.0104544, 14.7680394 ], [ -17.0104461, 14.7671358 ], [ -17.0095175, 14.7671439 ] ] ] } },
{ "type": "Feature", "properties": { "grid_id": 105, "cell_id": "c_06_09", "quartier_majoritaire": "Quartier A", "share_in_quartiers": 1.0 }, "geometry": { "type": "Polygon", "coordinates": [ [ [ -17.0085889, 14.767152 ], [ -17.0085972, 14.7680556 ], [ -17.0095258, 14.7680475 ], [ -17.0095175, 14.7671439 ], [ -17.0085889, 14.767152 ] ] ] } },
{ "type": "Feature", "properties": { "grid_id": 106, "cell_id": "c_07_09", "quartier_majoritaire": "Quartier A", "share_in_quartiers": 1.0 }, "geometry": { "type": "Polygon", "coordinates": [ [ [ -17.0076603, 14.7671601 ], [ -17.0076686, 14.7680637 ], [ -17.0085972, 14.7680556 ], [ -17.0085889, 14.767152 ], [ -17.0076603, 14.7671601 ] ] ] } },
{ "type": "Feature", "properties": { "grid_id": 107, "cell_id": "c_08_09", "quartier_majoritaire": "Quartier A", "share_in_quartiers": 1.0 }, "geometry": { "type": "Polygon", "coordinates": [ [ [ -17.0067317, 14.7671681 ], [ -17.00674, 14.7680717 ], [ -17.0076686, 14.7680637 ], [ -17.0076603, 14.7671601 ], [ -17.0067317, 14.7671681 ] ] ] } },
{ "type": "Feature", "properties": { "grid_id": 108, "cell_id": "c_09_09", "quartier_majoritaire": "Quartier A", "share_in_quartiers": 1.0 }, "geometry": { "type": "Polygon", "coordinates": [ [ [ -17.0058031, 14.7671762 ], [ -17.0058114, 14.7680798 ], [ -17.00674, 14.7680717 ], [ -17.0067317, 14.7671681 ], [ -17.0058031, 14.7671762 ] ] ] } },
{ "type": "Feature", "properties": { "grid_id": 109, "cell_id": "c_10_09", "quartier_majoritaire": "Quartier A", "share_in_quartiers": 0.9962 }, "geometry": { "type": "Polygon", "coordinates": [ [ [ -17.0048745, 14.7671843 ], [ -17.0048828, 14.7680879 ], [ -17.0058114, 14.7680798 ], [ -17.0058031, 14.7671762 ], [ -17.0048745, 14.7671843 ] ] ] } },
{ "type": "Feature", "properties": { "grid_id": 110, "cell_id": "c_11_09", "quartier_majoritaire": "Quartier A", "share_in_quartiers": 0.6899 }, "geometry": { "type": "Polygon", "coordinates": [ [ [ -17.0039459, 14.7671923 ], [ -17.0039542, 14.7680959 ], [ -17.0048828, 14.7680879 ], [ -17.0048745, 14.7671843 ], [ -17.0039459, 14.7671923 ] ] ] } },
{ "type": "Feature", "properties": { "grid_id": 111, "cell_id": "c_01_10", "quartier_majoritaire": "Servitude climatique 1", "share_in_quartiers": 0.7574 }, "geometry": { "type": "Polygon", "coordinates": [ [ [ -17.0132235, 14.766208 ], [ -17.0132319, 14.7671116 ], [ -17.0141605, 14.7671035 ], [ -17.0141521, 14.7661999 ], [ -17.0132235, 14.766208 ] ] ] } },
{ "type": "Feature", "properties": { "grid_id": 112, "cell_id": "c_02_10", "quartier_majoritaire": "Servitude climatique 1", "share_in_quartiers": 1.0 }, "geometry": { "type": "Polygon", "coordinates": [ [ [ -17.012295, 14.7662161 ], [ -17.0123033, 14.7671197 ], [ -17.0132319, 14.7671116 ], [ -17.0132235, 14.766208 ], [ -17.012295, 14.7662161 ] ] ] } },
{ "type": "Feature", "properties": { "grid_id": 113, "cell_id": "c_03_10", "quartier_majoritaire": "Quartier A", "share_in_quartiers": 1.0 }, "geometry": { "type": "Polygon", "coordinates": [ [ [ -17.0113664, 14.7662242 ], [ -17.0113747, 14.7671278 ], [ -17.0123033, 14.7671197 ], [ -17.012295, 14.7662161 ], [ -17.0113664, 14.7662242 ] ] ] } },
{ "type": "Feature", "properties": { "grid_id": 114, "cell_id": "c_04_10", "quartier_majoritaire": "Quartier A", "share_in_quartiers": 1.0 }, "geometry": { "type": "Polygon", "coordinates": [ [ [ -17.0104378, 14.7662323 ], [ -17.0104461, 14.7671358 ], [ -17.0113747, 14.7671278 ], [ -17.0113664, 14.7662242 ], [ -17.0104378, 14.7662323 ] ] ] } },
{ "type": "Feature", "properties": { "grid_id": 115, "cell_id": "c_05_10", "quartier_majoritaire": "Quartier A", "share_in_quartiers": 1.0 }, "geometry": { "type": "Polygon", "coordinates": [ [ [ -17.0095092, 14.7662403 ], [ -17.0095175, 14.7671439 ], [ -17.0104461, 14.7671358 ], [ -17.0104378, 14.7662323 ], [ -17.0095092, 14.7662403 ] ] ] } },
{ "type": "Feature", "properties": { "grid_id": 116, "cell_id": "c_06_10", "quartier_majoritaire": "Quartier A", "share_in_quartiers": 0.9855 }, "geometry": { "type": "Polygon", "coordinates": [ [ [ -17.0085806, 14.7662484 ], [ -17.0085889, 14.767152 ], [ -17.0095175, 14.7671439 ], [ -17.0095092, 14.7662403 ], [ -17.0085806, 14.7662484 ] ] ] } },
{ "type": "Feature", "properties": { "grid_id": 117, "cell_id": "c_07_10", "quartier_majoritaire": "Quartier A", "share_in_quartiers": 0.7967 }, "geometry": { "type": "Polygon", "coordinates": [ [ [ -17.007652, 14.7662565 ], [ -17.0076603, 14.7671601 ], [ -17.0085889, 14.767152 ], [ -17.0085806, 14.7662484 ], [ -17.007652, 14.7662565 ] ] ] } },
{ "type": "Feature", "properties": { "grid_id": 118, "cell_id": "c_08_10", "quartier_majoritaire": "Quartier A", "share_in_quartiers": 0.5568 }, "geometry": { "type": "Polygon", "coordinates": [ [ [ -17.0067234, 14.7662646 ], [ -17.0067317, 14.7671681 ], [ -17.0076603, 14.7671601 ], [ -17.007652, 14.7662565 ], [ -17.0067234, 14.7662646 ] ] ] } },
{ "type": "Feature", "properties": { "grid_id": 119, "cell_id": "c_09_10", "quartier_majoritaire": "Quartier A", "share_in_quartiers": 0.317 }, "geometry": { "type": "Polygon", "coordinates": [ [ [ -17.0057948, 14.7662726 ], [ -17.0058031, 14.7671762 ], [ -17.0067317, 14.7671681 ], [ -17.0067234, 14.7662646 ], [ -17.0057948, 14.7662726 ] ] ] } },
{ "type": "Feature", "properties": { "grid_id": 120, "cell_id": "c_10_10", "quartier_majoritaire": "Quartier A", "share_in_quartiers": 0.0809 }, "geometry": { "type": "Polygon", "coordinates": [ [ [ -17.0048662, 14.7662807 ], [ -17.0048745, 14.7671843 ], [ -17.0058031, 14.7671762 ], [ -17.0057948, 14.7662726 ], [ -17.0048662, 14.7662807 ] ] ] } },
{ "type": "Feature", "properties": { "grid_id": 121, "cell_id": "c_01_11", "quartier_majoritaire": "Quartier A", "share_in_quartiers": 0.7555 }, "geometry": { "type": "Polygon", "coordinates": [ [ [ -17.0132152, 14.7653044 ], [ -17.0132235, 14.766208 ], [ -17.0141521, 14.7661999 ], [ -17.0141438, 14.7652963 ], [ -17.0132152, 14.7653044 ] ] ] } },
{ "type": "Feature", "properties": { "grid_id": 122, "cell_id": "c_02_11", "quartier_majoritaire": "Quartier A", "share_in_quartiers": 0.968 }, "geometry": { "type": "Polygon", "coordinates": [ [ [ -17.0122866, 14.7653125 ], [ -17.012295, 14.7662161 ], [ -17.0132235, 14.766208 ], [ -17.0132152, 14.7653044 ], [ -17.0122866, 14.7653125 ] ] ] } },
{ "type": "Feature", "properties": { "grid_id": 123, "cell_id": "c_03_11", "quartier_majoritaire": "Quartier A", "share_in_quartiers": 0.7562 }, "geometry": { "type": "Polygon", "coordinates": [ [ [ -17.0113581, 14.7653206 ], [ -17.0113664, 14.7662242 ], [ -17.012295, 14.7662161 ], [ -17.0122866, 14.7653125 ], [ -17.0113581, 14.7653206 ] ] ] } },
{ "type": "Feature", "properties": { "grid_id": 124, "cell_id": "c_04_11", "quartier_majoritaire": "Quartier A", "share_in_quartiers": 0.5163 }, "geometry": { "type": "Polygon", "coordinates": [ [ [ -17.0104295, 14.7653287 ], [ -17.0104378, 14.7662323 ], [ -17.0113664, 14.7662242 ], [ -17.0113581, 14.7653206 ], [ -17.0104295, 14.7653287 ] ] ] } },
{ "type": "Feature", "properties": { "grid_id": 125, "cell_id": "c_05_11", "quartier_majoritaire": "Quartier A", "share_in_quartiers": 0.2765 }, "geometry": { "type": "Polygon", "coordinates": [ [ [ -17.0095009, 14.7653368 ], [ -17.0095092, 14.7662403 ], [ -17.0104378, 14.7662323 ], [ -17.0104295, 14.7653287 ], [ -17.0095009, 14.7653368 ] ] ] } },
{ "type": "Feature", "properties": { "grid_id": 126, "cell_id": "c_06_11", "quartier_majoritaire": "Quartier A", "share_in_quartiers": 0.0511 }, "geometry": { "type": "Polygon", "coordinates": [ [ [ -17.0085723, 14.7653448 ], [ -17.0085806, 14.7662484 ], [ -17.0095092, 14.7662403 ], [ -17.0095009, 14.7653368 ], [ -17.0085723, 14.7653448 ] ] ] } },
{ "type": "Feature", "properties": { "grid_id": 127, "cell_id": "c_01_12", "quartier_majoritaire": "Quartier A", "share_in_quartiers": 0.1566 }, "geometry": { "type": "Polygon", "coordinates": [ [ [ -17.0132069, 14.7644008 ], [ -17.0132152, 14.7653044 ], [ -17.0141438, 14.7652963 ], [ -17.0141355, 14.7643927 ], [ -17.0132069, 14.7644008 ] ] ] } },
{ "type": "Feature", "properties": { "grid_id": 128, "cell_id": "c_02_12", "quartier_majoritaire": "Quartier A", "share_in_quartiers": 0.028 }, "geometry": { "type": "Polygon", "coordinates": [ [ [ -17.0122783, 14.7644089 ], [ -17.0122866, 14.7653125 ], [ -17.0132152, 14.7653044 ], [ -17.0132069, 14.7644008 ], [ -17.0122783, 14.7644089 ] ] ] } }
]
}
