{
"type": "FeatureCollection",
"name": "grille_100m",
"crs": { "type": "name", "properties": { "name": "urn:ogc:def:crs:OGC:1.3:CRS84" } },
"features": [
{ "type": "Feature", "properties": { "cell_id": "c_01_00", "grid_id": 1, "quartier_majoritaire": "Quartier 4", "paved": 0.0, "bldgs": 0.011, "evetr": 0.0, "dectr": 0.0, "bsoil": 0.989, "population": 0.0, "popdens_hab_ha": 0.0 }, "geometry": { "type": "Polygon", "coordinates": [ [ [ -17.013306772251589, 14.775243782524228 ], [ -17.013315097811692, 14.776147361624112 ], [ -17.014243728852652, 14.776139258526724 ], [ -17.014235399458759, 14.775235679944181 ], [ -17.013306772251589, 14.775243782524228 ] ] ] } },
{ "type": "Feature", "properties": { "cell_id": "c_02_00", "grid_id": 2, "quartier_majoritaire": "Quartier 4", "paved": 0.0, "bldgs": 0.021, "evetr": 0.0, "dectr": 0.0, "bsoil": 0.979, "population": 0.0, "popdens_hab_ha": 0.0 }, "geometry": { "type": "Polygon", "coordinates": [ [ [ -17.0123781444778, 14.775251881373707 ], [ -17.012386466204106, 14.776155460990692 ], [ -17.013315097811692, 14.776147361624112 ], [ -17.013306772251589, 14.775243782524228 ], [ -17.0123781444778, 14.775251881373707 ] ] ] } },
{ "type": "Feature", "properties": { "cell_id": "c_03_00", "grid_id": 3, "quartier_majoritaire": "Quartier 4", "paved": 0.0, "bldgs": 0.022, "evetr": 0.0, "dectr": 0.0, "bsoil": 0.978, "population": 12.8, "popdens_hab_ha": 12.8 }, "geometry": { "type": "Polygon", "coordinates": [ [ [ -17.011449516137663, 14.77525997649261 ], [ -17.011457834030146, 14.776163556626461 ], [ -17.012386466204106, 14.776155460990692 ], [ -17.0123781444778, 14.775251881373707 ], [ -17.011449516137663, 14.77525997649261 ] ] ] } },
{ "type": "Feature", "properties": { "cell_id": "c_04_00", "grid_id": 4, "quartier_majoritaire": "Quartier 4", "paved": 0.0, "bldgs": 0.028, "evetr": 0.002, "dectr": 0.0, "bsoil": 0.97, "population": 19.2, "popdens_hab_ha": 19.2 }, "geometry": { "type": "Polygon", "coordinates": [ [ [ -17.010520887231422, 14.775268067880928 ], [ -17.01052920129008, 14.776171648531403 ], [ -17.011457834030146, 14.776163556626461 ], [ -17.011449516137663, 14.77525997649261 ], [ -17.010520887231422, 14.775268067880928 ] ] ] } },
{ "type": "Feature", "properties": { "cell_id": "c_05_00", "grid_id": 5, "quartier_majoritaire": "Quartier 4", "paved": 0.0, "bldgs": 0.031, "evetr": 0.001, "dectr": 0.0, "bsoil": 0.968, "population": 19.2, "popdens_hab_ha": 19.2 }, "geometry": { "type": "Polygon", "coordinates": [ [ [ -17.009592257759344, 14.77527615553865 ], [ -17.009600567984165, 14.77617973670551 ], [ -17.01052920129008, 14.776171648531403 ], [ -17.010520887231422, 14.775268067880928 ], [ -17.009592257759344, 14.77527615553865 ] ] ] } },
{ "type": "Feature", "properties": { "cell_id": "c_06_00", "grid_id": 6, "quartier_majoritaire": "Quartier 4", "paved": 0.0, "bldgs": 0.03, "evetr": 0.001, "dectr": 0.0, "bsoil": 0.969, "population": 19.2, "popdens_hab_ha": 19.2 }, "geometry": { "type": "Polygon", "coordinates": [ [ [ -17.008663627721688, 14.77528423946576 ], [ -17.008671934112662, 14.776187821148769 ], [ -17.009600567984165, 14.77617973670551 ], [ -17.009592257759344, 14.77527615553865 ], [ -17.008663627721688, 14.77528423946576 ] ] ] } },
{ "type": "Feature", "properties": { "cell_id": "c_07_00", "grid_id": 7, "quartier_majoritaire": "Quartier 4", "paved": 0.0, "bldgs": 0.028, "evetr": 0.0, "dectr": 0.0, "bsoil": 0.972, "population": 0.0, "popdens_hab_ha": 0.0 }, "geometry": { "type": "Polygon", "coordinates": [ [ [ -17.007734997118721, 14.775292319662253 ], [ -17.007743299675838, 14.776195901861179 ], [ -17.008671934112662, 14.776187821148769 ], [ -17.008663627721688, 14.77528423946576 ], [ -17.007734997118721, 14.775292319662253 ] ] ] } },
{ "type": "Feature", "properties": { "cell_id": "c_08_00", "grid_id": 8, "quartier_majoritaire": "Quartier 4", "paved": 0.0, "bldgs": 0.0, "evetr": 0.0, "dectr": 0.0, "bsoil": 1.0, "population": 0.0, "popdens_hab_ha": 0.0 }, "geometry": { "type": "Polygon", "coordinates": [ [ [ -17.006806365950698, 14.775300396128118 ], [ -17.006814664673943, 14.776203978842714 ], [ -17.007743299675838, 14.776195901861179 ], [ -17.007734997118721, 14.775292319662253 ], [ -17.006806365950698, 14.775300396128118 ] ] ] } },
{ "type": "Feature", "properties": { "cell_id": "c_09_00", "grid_id": 9, "quartier_majoritaire": "Quartier SC2", "paved": 0.0, "bldgs": 0.0, "evetr": 0.094, "dectr": 0.06, "bsoil": 0.846, "population": 0.0, "popdens_hab_ha": 0.0 }, "geometry": { "type": "Polygon", "coordinates": [ [ [ -17.005877734217886, 14.775308468863351 ], [ -17.005886029107248, 14.776212052093376 ], [ -17.006814664673943, 14.776203978842714 ], [ -17.006806365950698, 14.775300396128118 ], [ -17.005877734217886, 14.775308468863351 ] ] ] } },
{ "type": "Feature", "properties": { "cell_id": "c_10_00", "grid_id": 10, "quartier_majoritaire": "Quartier 5", "paved": 0.0, "bldgs": 0.012, "evetr": 0.078, "dectr": 0.091, "bsoil": 0.819, "population": 0.0, "popdens_hab_ha": 0.0 }, "geometry": { "type": "Polygon", "coordinates": [ [ [ -17.004949101920541, 14.775316537867925 ], [ -17.00495739297601, 14.776220121613148 ], [ -17.005886029107248, 14.776212052093376 ], [ -17.005877734217886, 14.775308468863351 ], [ -17.004949101920541, 14.775316537867925 ] ] ] } },
{ "type": "Feature", "properties": { "cell_id": "c_11_00", "grid_id": 11, "quartier_majoritaire": "Quartier 5", "paved": 0.0, "bldgs": 0.036, "evetr": 0.008, "dectr": 0.023, "bsoil": 0.933, "population": 19.2, "popdens_hab_ha": 19.2 }, "geometry": { "type": "Polygon", "coordinates": [ [ [ -17.004020469058926, 14.77532460314184 ], [ -17.004028756280487, 14.776228187402028 ], [ -17.00495739297601, 14.776220121613148 ], [ -17.004949101920541, 14.775316537867925 ], [ -17.004020469058926, 14.77532460314184 ] ] ] } },
{ "type": "Feature", "properties": { "cell_id": "c_01_01", "grid_id": 12, "quartier_majoritaire": "Quartier 4", "paved": 0.0, "bldgs": 0.121, "evetr": 0.4, "dectr": 0.088, "bsoil": 0.391, "population": 83.2, "popdens_hab_ha": 83.2 }, "geometry": { "type": "Polygon", "coordinates": [ [ [ -17.013298447258105, 14.77434020334916 ], [ -17.013306772251589, 14.775243782524228 ], [ -17.014235399458759, 14.775235679944181 ], [ -17.01422707063174, 14.774332101286449 ], [ -17.013298447258105, 14.77434020334916 ] ] ] } },
{ "type": "Feature", "properties": { "cell_id": "c_02_01", "grid_id": 13, "quartier_majoritaire": "Quartier 4", "paved": 0.007, "bldgs": 0.172, "evetr": 0.349, "dectr": 0.203, "bsoil": 0.269, "population": 134.4, "popdens_hab_ha": 134.4 }, "geometry": { "type": "Polygon", "coordinates": [ [ [ -17.012369823317862, 14.774348301681542 ], [ -17.0123781444778, 14.775251881373707 ], [ -17.013306772251589, 14.775243782524228 ], [ -17.013298447258105, 14.77434020334916 ], [ -17.012369823317862, 14.774348301681542 ] ] ] } },
{ "type": "Feature", "properties": { "cell_id": "c_03_01", "grid_id": 14, "quartier_majoritaire": "Quartier 4", "paved": 0.0, "bldgs": 0.204, "evetr": 0.42, "dectr": 0.125, "bsoil": 0.251, "population": 140.8, "popdens_hab_ha": 140.8 }, "geometry": { "type": "Polygon", "coordinates": [ [ [ -17.011441198811273, 14.774356396283585 ], [ -17.011449516137663, 14.77525997649261 ], [ -17.0123781444778, 14.775251881373707 ], [ -17.012369823317862, 14.774348301681542 ], [ -17.011441198811273, 14.774356396283585 ] ] ] } },
{ "type": "Feature", "properties": { "cell_id": "c_04_01", "grid_id": 15, "quartier_majoritaire": "Quartier 4", "paved": 0.0, "bldgs": 0.168, "evetr": 0.339, "dectr": 0.147, "bsoil": 0.346, "population": 134.4, "popdens_hab_ha": 134.4 }, "geometry": { "type": "Polygon", "coordinates": [ [ [ -17.010512573738595, 14.774364487155282 ], [ -17.010520887231422, 14.775268067880928 ], [ -17.011449516137663, 14.77525997649261 ], [ -17.011441198811273, 14.774356396283585 ], [ -17.010512573738595, 14.774364487155282 ] ] ] } },
{ "type": "Feature", "properties": { "cell_id": "c_05_01", "grid_id": 16, "quartier_majoritaire": "Quartier 4", "paved": 0.024, "bldgs": 0.17, "evetr": 0.405, "dectr": 0.096, "bsoil": 0.305, "population": 147.2, "popdens_hab_ha": 147.2 }, "geometry": { "type": "Polygon", "coordinates": [ [ [ -17.009583948100097, 14.774372574296615 ], [ -17.009592257759344, 14.77527615553865 ], [ -17.010520887231422, 14.775268067880928 ], [ -17.010512573738595, 14.774364487155282 ], [ -17.009583948100097, 14.774372574296615 ] ] ] } },
{ "type": "Feature", "properties": { "cell_id": "c_06_01", "grid_id": 17, "quartier_majoritaire": "Quartier 4", "paved": 0.033, "bldgs": 0.153, "evetr": 0.411, "dectr": 0.049, "bsoil": 0.354, "population": 153.6, "popdens_hab_ha": 153.6 }, "geometry": { "type": "Polygon", "coordinates": [ [ [ -17.008655321896029, 14.774380657707583 ], [ -17.008663627721688, 14.77528423946576 ], [ -17.009592257759344, 14.77527615553865 ], [ -17.009583948100097, 14.774372574296615 ], [ -17.008655321896029, 14.774380657707583 ] ] ] } },
{ "type": "Feature", "properties": { "cell_id": "c_07_01", "grid_id": 18, "quartier_majoritaire": "Quartier 4", "paved": 0.065, "bldgs": 0.144, "evetr": 0.22, "dectr": 0.13, "bsoil": 0.441, "population": 153.6, "popdens_hab_ha": 153.6 }, "geometry": { "type": "Polygon", "coordinates": [ [ [ -17.00772669512666, 14.77438873738817 ], [ -17.007734997118721, 14.775292319662253 ], [ -17.008663627721688, 14.77528423946576 ], [ -17.008655321896029, 14.774380657707583 ], [ -17.00772669512666, 14.77438873738817 ] ] ] } },
{ "type": "Feature", "properties": { "cell_id": "c_08_01", "grid_id": 19, "quartier_majoritaire": "Quartier SC2", "paved": 0.008, "bldgs": 0.0, "evetr": 0.334, "dectr": 0.134, "bsoil": 0.524, "population": 0.0, "popdens_hab_ha": 0.0 }, "geometry": { "type": "Polygon", "coordinates": [ [ [ -17.00679806779225, 14.774396813338369 ], [ -17.006806365950698, 14.775300396128118 ], [ -17.007734997118721, 14.775292319662253 ], [ -17.00772669512666, 14.77438873738817 ], [ -17.00679806779225, 14.774396813338369 ] ] ] } },
{ "type": "Feature", "properties": { "cell_id": "c_09_01", "grid_id": 20, "quartier_majoritaire": "Quartier SC2", "paved": 0.007, "bldgs": 0.0, "evetr": 0.53, "dectr": 0.42, "bsoil": 0.043, "population": 0.0, "popdens_hab_ha": 0.0 }, "geometry": { "type": "Polygon", "coordinates": [ [ [ -17.005869439893054, 14.774404885558166 ], [ -17.005877734217886, 14.775308468863351 ], [ -17.006806365950698, 14.775300396128118 ], [ -17.00679806779225, 14.774396813338369 ], [ -17.005869439893054, 14.774404885558166 ] ] ] } },
{ "type": "Feature", "properties": { "cell_id": "c_10_01", "grid_id": 21, "quartier_majoritaire": "Quartier 5", "paved": 0.019, "bldgs": 0.207, "evetr": 0.415, "dectr": 0.216, "bsoil": 0.143, "population": 70.4, "popdens_hab_ha": 70.4 }, "geometry": { "type": "Polygon", "coordinates": [ [ [ -17.004940811429339, 14.77441295404755 ], [ -17.004949101920541, 14.775316537867925 ], [ -17.005877734217886, 14.775308468863351 ], [ -17.005869439893054, 14.774404885558166 ], [ -17.004940811429339, 14.77441295404755 ] ] ] } },
{ "type": "Feature", "properties": { "cell_id": "c_11_01", "grid_id": 22, "quartier_majoritaire": "Quartier 5", "paved": 0.019, "bldgs": 0.214, "evetr": 0.291, "dectr": 0.067, "bsoil": 0.409, "population": 57.6, "popdens_hab_ha": 57.6 }, "geometry": { "type": "Polygon", "coordinates": [ [ [ -17.004012182401365, 14.774421018806516 ], [ -17.004020469058926, 14.77532460314184 ], [ -17.004949101920541, 14.775316537867925 ], [ -17.004940811429339, 14.77441295404755 ], [ -17.004012182401365, 14.774421018806516 ] ] ] } },
{ "type": "Feature", "properties": { "cell_id": "c_01_02", "grid_id": 23, "quartier_majoritaire": "Quartier SC2", "paved": 0.0, "bldgs": 0.051, "evetr": 0.32, "dectr": 0.305, "bsoil": 0.324, "population": 83.2, "popdens_hab_ha": 83.2 }, "geometry": { "type": "Polygon", "coordinates": [ [ [ -17.013290122831226, 14.773436624098903 ], [ -17.013298447258105, 14.77434020334916 ], [ -17.01422707063174, 14.774332101286449 ], [ -17.01421874237159, 14.773428522553528 ], [ -17.013290122831226, 14.773436624098903 ] ] ] } },
{ "type": "Feature", "properties": { "cell_id": "c_02_02", "grid_id": 24, "quartier_majoritaire": "Quartier SC2", "paved": 0.034, "bldgs": 0.087, "evetr": 0.467, "dectr": 0.168, "bsoil": 0.244, "population": 108.8, "popdens_hab_ha": 108.8 }, "geometry": { "type": "Polygon", "coordinates": [ [ [ -17.012361502724268, 14.77344472191419 ], [ -17.012369823317862, 14.774348301681542 ], [ -17.013298447258105, 14.77434020334916 ], [ -17.013290122831226, 14.773436624098903 ], [ -17.012361502724268, 14.77344472191419 ] ] ] } },
{ "type": "Feature", "properties": { "cell_id": "c_03_02", "grid_id": 25, "quartier_majoritaire": "Quartier SC2", "paved": 0.044, "bldgs": 0.0, "evetr": 0.516, "dectr": 0.282, "bsoil": 0.158, "population": 0.0, "popdens_hab_ha": 0.0 }, "geometry": { "type": "Polygon", "coordinates": [ [ [ -17.011432882050972, 14.773452815999381 ], [ -17.011441198811273, 14.774356396283585 ], [ -17.012369823317862, 14.774348301681542 ], [ -17.012361502724268, 14.77344472191419 ], [ -17.011432882050972, 14.773452815999381 ] ] ] } },
{ "type": "Feature", "properties": { "cell_id": "c_04_02", "grid_id": 26, "quartier_majoritaire": "Quartier SC2", "paved": 0.03, "bldgs": 0.0, "evetr": 0.4, "dectr": 0.121, "bsoil": 0.449, "population": 0.0, "popdens_hab_ha": 0.0 }, "geometry": { "type": "Polygon", "coordinates": [ [ [ -17.010504260811601, 14.773460906354456 ], [ -17.010512573738595, 14.774364487155282 ], [ -17.011441198811273, 14.774356396283585 ], [ -17.011432882050972, 14.773452815999381 ], [ -17.010504260811601, 14.773460906354456 ] ] ] } },
{ "type": "Feature", "properties": { "cell_id": "c_05_02", "grid_id": 27, "quartier_majoritaire": "Quartier SC2", "paved": 0.042, "bldgs": 0.024, "evetr": 0.453, "dectr": 0.241, "bsoil": 0.24, "population": 0.0, "popdens_hab_ha": 0.0 }, "geometry": { "type": "Polygon", "coordinates": [ [ [ -17.009575639006414, 14.773468992979414 ], [ -17.009583948100097, 14.774372574296615 ], [ -17.010512573738595, 14.774364487155282 ], [ -17.010504260811601, 14.773460906354456 ], [ -17.009575639006414, 14.773468992979414 ] ] ] } },
{ "type": "Feature", "properties": { "cell_id": "c_06_02", "grid_id": 28, "quartier_majoritaire": "Quartier SC2", "paved": 0.025, "bldgs": 0.072, "evetr": 0.532, "dectr": 0.174, "bsoil": 0.197, "population": 262.4, "popdens_hab_ha": 262.4 }, "geometry": { "type": "Polygon", "coordinates": [ [ [ -17.008647016635674, 14.773477075874245 ], [ -17.008655321896029, 14.774380657707583 ], [ -17.009583948100097, 14.774372574296615 ], [ -17.009575639006414, 14.773468992979414 ], [ -17.008647016635674, 14.773477075874245 ] ] ] } },
{ "type": "Feature", "properties": { "cell_id": "c_07_02", "grid_id": 29, "quartier_majoritaire": "Quartier 3", "paved": 0.004, "bldgs": 0.09, "evetr": 0.54, "dectr": 0.35, "bsoil": 0.016, "population": 256.0, "popdens_hab_ha": 256.0 }, "geometry": { "type": "Polygon", "coordinates": [ [ [ -17.007718393699641, 14.773485155038927 ], [ -17.00772669512666, 14.77438873738817 ], [ -17.008655321896029, 14.774380657707583 ], [ -17.008647016635674, 14.773477075874245 ], [ -17.007718393699641, 14.773485155038927 ] ] ] } },
{ "type": "Feature", "properties": { "cell_id": "c_08_02", "grid_id": 30, "quartier_majoritaire": "Quartier 3", "paved": 0.005, "bldgs": 0.058, "evetr": 0.562, "dectr": 0.337, "bsoil": 0.038, "population": 128.0, "popdens_hab_ha": 128.0 }, "geometry": { "type": "Polygon", "coordinates": [ [ [ -17.00678977019858, 14.773493230473457 ], [ -17.00679806779225, 14.774396813338369 ], [ -17.00772669512666, 14.77438873738817 ], [ -17.007718393699641, 14.773485155038927 ], [ -17.00678977019858, 14.773493230473457 ] ] ] } },
{ "type": "Feature", "properties": { "cell_id": "c_09_02", "grid_id": 31, "quartier_majoritaire": "Quartier 3", "paved": 0.015, "bldgs": 0.172, "evetr": 0.464, "dectr": 0.148, "bsoil": 0.201, "population": 256.0, "popdens_hab_ha": 256.0 }, "geometry": { "type": "Polygon", "coordinates": [ [ [ -17.005861146132744, 14.773501302177833 ], [ -17.005869439893054, 14.774404885558166 ], [ -17.00679806779225, 14.774396813338369 ], [ -17.00678977019858, 14.773493230473457 ], [ -17.005861146132744, 14.773501302177833 ] ] ] } },
{ "type": "Feature", "properties": { "cell_id": "c_10_02", "grid_id": 32, "quartier_majoritaire": "Quartier 5", "paved": 0.0, "bldgs": 0.174, "evetr": 0.503, "dectr": 0.158, "bsoil": 0.165, "population": 57.6, "popdens_hab_ha": 57.6 }, "geometry": { "type": "Polygon", "coordinates": [ [ [ -17.004932521502401, 14.773509370152031 ], [ -17.004940811429339, 14.77441295404755 ], [ -17.005869439893054, 14.774404885558166 ], [ -17.005861146132744, 14.773501302177833 ], [ -17.004932521502401, 14.773509370152031 ] ] ] } },
{ "type": "Feature", "properties": { "cell_id": "c_11_02", "grid_id": 33, "quartier_majoritaire": "Quartier 5", "paved": 0.058, "bldgs": 0.227, "evetr": 0.248, "dectr": 0.023, "bsoil": 0.444, "population": 76.8, "popdens_hab_ha": 76.8 }, "geometry": { "type": "Polygon", "coordinates": [ [ [ -17.004003896307808, 14.773517434396041 ], [ -17.004012182401365, 14.774421018806516 ], [ -17.004940811429339, 14.77441295404755 ], [ -17.004932521502401, 14.773509370152031 ], [ -17.004003896307808, 14.773517434396041 ] ] ] } },
{ "type": "Feature", "properties": { "cell_id": "c_01_03", "grid_id": 34, "quartier_majoritaire": "Quartier 2", "paved": 0.007, "bldgs": 0.28, "evetr": 0.21, "dectr": 0.0, "bsoil": 0.503, "population": 153.6, "popdens_hab_ha": 153.6 }, "geometry": { "type": "Polygon", "coordinates": [ [ [ -17.013281798970947, 14.772533044773461 ], [ -17.013290122831226, 14.773436624098903 ], [ -17.01421874237159, 14.773428522553528 ], [ -17.014210414678299, 14.772524943745411 ], [ -17.013281798970947, 14.772533044773461 ] ] ] } },
{ "type": "Feature", "properties": { "cell_id": "c_02_03", "grid_id": 35, "quartier_majoritaire": "Quartier 2", "paved": 0.063, "bldgs": 0.228, "evetr": 0.315, "dectr": 0.012, "bsoil": 0.382, "population": 256.0, "popdens_hab_ha": 256.0 }, "geometry": { "type": "Polygon", "coordinates": [ [ [ -17.012353182697009, 14.772541142071663 ], [ -17.012361502724268, 14.77344472191419 ], [ -17.013290122831226, 14.773436624098903 ], [ -17.013281798970947, 14.772533044773461 ], [ -17.012353182697009, 14.772541142071663 ] ] ] } },
{ "type": "Feature", "properties": { "cell_id": "c_03_03", "grid_id": 36, "quartier_majoritaire": "Quartier 3", "paved": 0.018, "bldgs": 0.123, "evetr": 0.557, "dectr": 0.301, "bsoil": 0.001, "population": 256.0, "popdens_hab_ha": 256.0 }, "geometry": { "type": "Polygon", "coordinates": [ [ [ -17.011424565856743, 14.77254923564 ], [ -17.011432882050972, 14.773452815999381 ], [ -17.012361502724268, 14.77344472191419 ], [ -17.012353182697009, 14.772541142071663 ], [ -17.011424565856743, 14.77254923564 ] ] ] } },
{ "type": "Feature", "properties": { "cell_id": "c_04_03", "grid_id": 37, "quartier_majoritaire": "Quartier 3", "paved": 0.024, "bldgs": 0.2, "evetr": 0.481, "dectr": 0.287, "bsoil": 0.008, "population": 384.0, "popdens_hab_ha": 384.0 }, "geometry": { "type": "Polygon", "coordinates": [ [ [ -17.010495948450416, 14.772557325478466 ], [ -17.010504260811601, 14.773460906354456 ], [ -17.011432882050972, 14.773452815999381 ], [ -17.011424565856743, 14.77254923564 ], [ -17.010495948450416, 14.772557325478466 ] ] ] } },
{ "type": "Feature", "properties": { "cell_id": "c_05_03", "grid_id": 38, "quartier_majoritaire": "Quartier 3", "paved": 0.025, "bldgs": 0.219, "evetr": 0.406, "dectr": 0.327, "bsoil": 0.023, "population": 512.0, "popdens_hab_ha": 512.0 }, "geometry": { "type": "Polygon", "coordinates": [ [ [ -17.009567330478287, 14.772565411587047 ], [ -17.009575639006414, 14.773468992979414 ], [ -17.010504260811601, 14.773460906354456 ], [ -17.010495948450416, 14.772557325478466 ], [ -17.009567330478287, 14.772565411587047 ] ] ] } },
{ "type": "Feature", "properties": { "cell_id": "c_06_03", "grid_id": 39, "quartier_majoritaire": "Quartier 3", "paved": 0.092, "bldgs": 0.111, "evetr": 0.371, "dectr": 0.192, "bsoil": 0.234, "population": 128.0, "popdens_hab_ha": 128.0 }, "geometry": { "type": "Polygon", "coordinates": [ [ [ -17.008638711940613, 14.772573493965735 ], [ -17.008647016635674, 14.773477075874245 ], [ -17.009575639006414, 14.773468992979414 ], [ -17.009567330478287, 14.772565411587047 ], [ -17.008638711940613, 14.772573493965735 ] ] ] } },
{ "type": "Feature", "properties": { "cell_id": "c_07_03", "grid_id": 40, "quartier_majoritaire": "Quartier 3", "paved": 0.02, "bldgs": 0.117, "evetr": 0.391, "dectr": 0.431, "bsoil": 0.041, "population": 262.4, "popdens_hab_ha": 262.4 }, "geometry": { "type": "Polygon", "coordinates": [ [ [ -17.007710092837655, 14.77258157261452 ], [ -17.007718393699641, 14.773485155038927 ], [ -17.008647016635674, 14.773477075874245 ], [ -17.008638711940613, 14.772573493965735 ], [ -17.007710092837655, 14.77258157261452 ] ] ] } },
{ "type": "Feature", "properties": { "cell_id": "c_08_03", "grid_id": 41, "quartier_majoritaire": "Quartier 3", "paved": 0.033, "bldgs": 0.104, "evetr": 0.488, "dectr": 0.345, "bsoil": 0.03, "population": 256.0, "popdens_hab_ha": 256.0 }, "geometry": { "type": "Polygon", "coordinates": [ [ [ -17.006781473169681, 14.772589647533396 ], [ -17.00678977019858, 14.773493230473457 ], [ -17.007718393699641, 14.773485155038927 ], [ -17.007710092837655, 14.77258157261452 ], [ -17.006781473169681, 14.772589647533396 ] ] ] } },
{ "type": "Feature", "properties": { "cell_id": "c_09_03", "grid_id": 42, "quartier_majoritaire": "Quartier 3", "paved": 0.063, "bldgs": 0.167, "evetr": 0.462, "dectr": 0.276, "bsoil": 0.032, "population": 256.0, "popdens_hab_ha": 256.0 }, "geometry": { "type": "Polygon", "coordinates": [ [ [ -17.005852852936947, 14.772597718722341 ], [ -17.005861146132744, 14.773501302177833 ], [ -17.00678977019858, 14.773493230473457 ], [ -17.006781473169681, 14.772589647533396 ], [ -17.005852852936947, 14.772597718722341 ] ] ] } },
{ "type": "Feature", "properties": { "cell_id": "c_10_03", "grid_id": 43, "quartier_majoritaire": "Quartier 5", "paved": 0.006, "bldgs": 0.218, "evetr": 0.309, "dectr": 0.149, "bsoil": 0.318, "population": 64.0, "popdens_hab_ha": 64.0 }, "geometry": { "type": "Polygon", "coordinates": [ [ [ -17.004924232139711, 14.772605786181355 ], [ -17.004932521502401, 14.773509370152031 ], [ -17.005861146132744, 14.773501302177833 ], [ -17.005852852936947, 14.772597718722341 ], [ -17.004924232139711, 14.772605786181355 ] ] ] } },
{ "type": "Feature", "properties": { "cell_id": "c_11_03", "grid_id": 44, "quartier_majoritaire": "Quartier 5", "paved": 0.046, "bldgs": 0.141, "evetr": 0.298, "dectr": 0.177, "bsoil": 0.338, "population": 44.8, "popdens_hab_ha": 44.8 }, "geometry": { "type": "Polygon", "coordinates": [ [ [ -17.003995610778237, 14.772613849910423 ], [ -17.004003896307808, 14.773517434396041 ], [ -17.004932521502401, 14.773509370152031 ], [ -17.004924232139711, 14.772605786181355 ], [ -17.003995610778237, 14.772613849910423 ] ] ] } },
{ "type": "Feature", "properties": { "cell_id": "c_01_04", "grid_id": 45, "quartier_majoritaire": "Quartier 2", "paved": 0.0, "bldgs": 0.298, "evetr": 0.0, "dectr": 0.0, "bsoil": 0.702, "population": 0.0, "popdens_hab_ha": 0.0 }, "geometry": { "type": "Polygon", "coordinates": [ [ [ -17.013273475677252, 14.771629465372849 ], [ -17.013281798970947, 14.772533044773461 ], [ -17.014210414678299, 14.772524943745411 ], [ -17.014202087551855, 14.771621364862121 ], [ -17.013273475677252, 14.771629465372849 ] ] ] } },
{ "type": "Feature", "properties": { "cell_id": "c_02_04", "grid_id": 46, "quartier_majoritaire": "Quartier 2", "paved": 0.01, "bldgs": 0.04, "evetr": 0.163, "dectr": 0.06, "bsoil": 0.727, "population": 0.0, "popdens_hab_ha": 0.0 }, "geometry": { "type": "Polygon", "coordinates": [ [ [ -17.012344863236073, 14.771637562153963 ], [ -17.012353182697009, 14.772541142071663 ], [ -17.013281798970947, 14.772533044773461 ], [ -17.013273475677252, 14.771629465372849 ], [ -17.012344863236073, 14.771637562153963 ] ] ] } },
{ "type": "Feature", "properties": { "cell_id": "c_03_04", "grid_id": 47, "quartier_majoritaire": "Quartier 3", "paved": 0.0, "bldgs": 0.17, "evetr": 0.378, "dectr": 0.44, "bsoil": 0.012, "population": 384.0, "popdens_hab_ha": 384.0 }, "geometry": { "type": "Polygon", "coordinates": [ [ [ -17.011416250228582, 14.771645655205454 ], [ -17.011424565856743, 14.77254923564 ], [ -17.012353182697009, 14.772541142071663 ], [ -17.012344863236073, 14.771637562153963 ], [ -17.011416250228582, 14.771645655205454 ] ] ] } },
{ "type": "Feature", "properties": { "cell_id": "c_04_04", "grid_id": 48, "quartier_majoritaire": "Quartier 3", "paved": 0.0, "bldgs": 0.141, "evetr": 0.521, "dectr": 0.338, "bsoil": 0.0, "population": 384.0, "popdens_hab_ha": 384.0 }, "geometry": { "type": "Polygon", "coordinates": [ [ [ -17.010487636655036, 14.771653744527308 ], [ -17.010495948450416, 14.772557325478466 ], [ -17.011424565856743, 14.77254923564 ], [ -17.011416250228582, 14.771645655205454 ], [ -17.010487636655036, 14.771653744527308 ] ] ] } },
{ "type": "Feature", "properties": { "cell_id": "c_05_04", "grid_id": 49, "quartier_majoritaire": "Quartier 3", "paved": 0.0, "bldgs": 0.163, "evetr": 0.481, "dectr": 0.346, "bsoil": 0.01, "population": 390.4, "popdens_hab_ha": 390.4 }, "geometry": { "type": "Polygon", "coordinates": [ [ [ -17.009559022515695, 14.771661830119518 ], [ -17.009567330478287, 14.772565411587047 ], [ -17.010495948450416, 14.772557325478466 ], [ -17.010487636655036, 14.771653744527308 ], [ -17.009559022515695, 14.771661830119518 ] ] ] } },
{ "type": "Feature", "properties": { "cell_id": "c_06_04", "grid_id": 50, "quartier_majoritaire": "Quartier 3", "paved": 0.048, "bldgs": 0.248, "evetr": 0.323, "dectr": 0.371, "bsoil": 0.01, "population": 384.0, "popdens_hab_ha": 384.0 }, "geometry": { "type": "Polygon", "coordinates": [ [ [ -17.008630407810831, 14.771669911982078 ], [ -17.008638711940613, 14.772573493965735 ], [ -17.009567330478287, 14.772565411587047 ], [ -17.009559022515695, 14.771661830119518 ], [ -17.008630407810831, 14.771669911982078 ] ] ] } },
{ "type": "Feature", "properties": { "cell_id": "c_07_04", "grid_id": 51, "quartier_majoritaire": "Quartier 3", "paved": 0.068, "bldgs": 0.097, "evetr": 0.342, "dectr": 0.326, "bsoil": 0.167, "population": 128.0, "popdens_hab_ha": 128.0 }, "geometry": { "type": "Polygon", "coordinates": [ [ [ -17.00770179254069, 14.771677990114966 ], [ -17.007710092837655, 14.77258157261452 ], [ -17.008638711940613, 14.772573493965735 ], [ -17.008630407810831, 14.771669911982078 ], [ -17.00770179254069, 14.771677990114966 ] ] ] } },
{ "type": "Feature", "properties": { "cell_id": "c_08_04", "grid_id": 52, "quartier_majoritaire": "Quartier 3", "paved": 0.1, "bldgs": 0.093, "evetr": 0.224, "dectr": 0.225, "bsoil": 0.358, "population": 256.0, "popdens_hab_ha": 256.0 }, "geometry": { "type": "Polygon", "coordinates": [ [ [ -17.006773176705543, 14.771686064518178 ], [ -17.006781473169681, 14.772589647533396 ], [ -17.007710092837655, 14.77258157261452 ], [ -17.00770179254069, 14.771677990114966 ], [ -17.006773176705543, 14.771686064518178 ] ] ] } },
{ "type": "Feature", "properties": { "cell_id": "c_09_04", "grid_id": 53, "quartier_majoritaire": "Quartier 3", "paved": 0.038, "bldgs": 0.04, "evetr": 0.309, "dectr": 0.225, "bsoil": 0.388, "population": 128.0, "popdens_hab_ha": 128.0 }, "geometry": { "type": "Polygon", "coordinates": [ [ [ -17.005844560305643, 14.771694135191712 ], [ -17.005852852936947, 14.772597718722341 ], [ -17.006781473169681, 14.772589647533396 ], [ -17.006773176705543, 14.771686064518178 ], [ -17.005844560305643, 14.771694135191712 ] ] ] } },
{ "type": "Feature", "properties": { "cell_id": "c_10_04", "grid_id": 54, "quartier_majoritaire": "Quartier 5", "paved": 0.002, "bldgs": 0.172, "evetr": 0.51, "dectr": 0.22, "bsoil": 0.096, "population": 57.6, "popdens_hab_ha": 57.6 }, "geometry": { "type": "Polygon", "coordinates": [ [ [ -17.00491594334126, 14.771702202135547 ], [ -17.004924232139711, 14.772605786181355 ], [ -17.005852852936947, 14.772597718722341 ], [ -17.005844560305643, 14.771694135191712 ], [ -17.00491594334126, 14.771702202135547 ] ] ] } },
{ "type": "Feature", "properties": { "cell_id": "c_11_04", "grid_id": 55, "quartier_majoritaire": "Servitude climatique 1", "paved": 0.0, "bldgs": 0.0, "evetr": 0.502, "dectr": 0.341, "bsoil": 0.157, "population": 0.0, "popdens_hab_ha": 0.0 }, "geometry": { "type": "Polygon", "coordinates": [ [ [ -17.003987325812645, 14.771710265349673 ], [ -17.003995610778237, 14.772613849910423 ], [ -17.004924232139711, 14.772605786181355 ], [ -17.00491594334126, 14.771702202135547 ], [ -17.003987325812645, 14.771710265349673 ] ] ] } },
{ "type": "Feature", "properties": { "cell_id": "c_01_05", "grid_id": 56, "quartier_majoritaire": "Quartier 2", "paved": 0.019, "bldgs": 0.266, "evetr": 0.221, "dectr": 0.012, "bsoil": 0.482, "population": 153.6, "popdens_hab_ha": 153.6 }, "geometry": { "type": "Polygon", "coordinates": [ [ [ -17.01326515295013, 14.770725885897063 ], [ -17.013273475677252, 14.771629465372849 ], [ -17.014202087551855, 14.771621364862121 ], [ -17.014193760992249, 14.770717785903651 ], [ -17.01326515295013, 14.770725885897063 ] ] ] } },
{ "type": "Feature", "properties": { "cell_id": "c_02_05", "grid_id": 57, "quartier_majoritaire": "Quartier 2", "paved": 0.084, "bldgs": 0.069, "evetr": 0.317, "dectr": 0.076, "bsoil": 0.454, "population": 51.2, "popdens_hab_ha": 51.2 }, "geometry": { "type": "Polygon", "coordinates": [ [ [ -17.012336544341451, 14.770733982161097 ], [ -17.012344863236073, 14.771637562153963 ], [ -17.013273475677252, 14.771629465372849 ], [ -17.01326515295013, 14.770725885897063 ], [ -17.012336544341451, 14.770733982161097 ] ] ] } },
{ "type": "Feature", "properties": { "cell_id": "c_03_05", "grid_id": 58, "quartier_majoritaire": "Quartier 3", "paved": 0.003, "bldgs": 0.179, "evetr": 0.372, "dectr": 0.442, "bsoil": 0.004, "population": 384.0, "popdens_hab_ha": 384.0 }, "geometry": { "type": "Polygon", "coordinates": [ [ [ -17.011407935166471, 14.770742074695749 ], [ -17.011416250228582, 14.771645655205454 ], [ -17.012344863236073, 14.771637562153963 ], [ -17.012336544341451, 14.770733982161097 ], [ -17.011407935166471, 14.770742074695749 ] ] ] } },
{ "type": "Feature", "properties": { "cell_id": "c_04_05", "grid_id": 59, "quartier_majoritaire": "Quartier 3", "paved": 0.068, "bldgs": 0.129, "evetr": 0.45, "dectr": 0.306, "bsoil": 0.047, "population": 384.0, "popdens_hab_ha": 384.0 }, "geometry": { "type": "Polygon", "coordinates": [ [ [ -17.010479325425447, 14.770750163500995 ], [ -17.010487636655036, 14.771653744527308 ], [ -17.011416250228582, 14.771645655205454 ], [ -17.011407935166471, 14.770742074695749 ], [ -17.010479325425447, 14.770750163500995 ] ] ] } },
{ "type": "Feature", "properties": { "cell_id": "c_05_05", "grid_id": 60, "quartier_majoritaire": "Quartier 3", "paved": 0.059, "bldgs": 0.309, "evetr": 0.293, "dectr": 0.123, "bsoil": 0.216, "population": 128.0, "popdens_hab_ha": 128.0 }, "geometry": { "type": "Polygon", "coordinates": [ [ [ -17.009550715118642, 14.770758248576835 ], [ -17.009559022515695, 14.771661830119518 ], [ -17.010487636655036, 14.771653744527308 ], [ -17.010479325425447, 14.770750163500995 ], [ -17.009550715118642, 14.770758248576835 ] ] ] } },
{ "type": "Feature", "properties": { "cell_id": "c_06_05", "grid_id": 61, "quartier_majoritaire": "Quartier 6", "paved": 0.056, "bldgs": 0.024, "evetr": 0.422, "dectr": 0.056, "bsoil": 0.442, "population": 0.0, "popdens_hab_ha": 0.0 }, "geometry": { "type": "Polygon", "coordinates": [ [ [ -17.008622104246317, 14.770766329923267 ], [ -17.008630407810831, 14.771669911982078 ], [ -17.009559022515695, 14.771661830119518 ], [ -17.009550715118642, 14.770758248576835 ], [ -17.008622104246317, 14.770766329923267 ] ] ] } },
{ "type": "Feature", "properties": { "cell_id": "c_07_05", "grid_id": 62, "quartier_majoritaire": "Quartier 6", "paved": 0.001, "bldgs": 0.0, "evetr": 0.385, "dectr": 0.13, "bsoil": 0.484, "population": 0.0, "popdens_hab_ha": 0.0 }, "geometry": { "type": "Polygon", "coordinates": [ [ [ -17.007693492808734, 14.770774407540268 ], [ -17.00770179254069, 14.771677990114966 ], [ -17.008630407810831, 14.771669911982078 ], [ -17.008622104246317, 14.770766329923267 ], [ -17.007693492808734, 14.770774407540268 ] ] ] } },
{ "type": "Feature", "properties": { "cell_id": "c_08_05", "grid_id": 63, "quartier_majoritaire": "Quartier 6", "paved": 0.107, "bldgs": 0.0, "evetr": 0.319, "dectr": 0.254, "bsoil": 0.32, "population": 0.0, "popdens_hab_ha": 0.0 }, "geometry": { "type": "Polygon", "coordinates": [ [ [ -17.006764880806148, 14.770782481427831 ], [ -17.006773176705543, 14.771686064518178 ], [ -17.00770179254069, 14.771677990114966 ], [ -17.007693492808734, 14.770774407540268 ], [ -17.006764880806148, 14.770782481427831 ] ] ] } },
{ "type": "Feature", "properties": { "cell_id": "c_09_05", "grid_id": 64, "quartier_majoritaire": "Servitude climatique 1", "paved": 0.0, "bldgs": 0.0, "evetr": 0.436, "dectr": 0.286, "bsoil": 0.278, "population": 0.0, "popdens_hab_ha": 0.0 }, "geometry": { "type": "Polygon", "coordinates": [ [ [ -17.005836268238831, 14.770790551585947 ], [ -17.005844560305643, 14.771694135191712 ], [ -17.006773176705543, 14.771686064518178 ], [ -17.006764880806148, 14.770782481427831 ], [ -17.005836268238831, 14.770790551585947 ] ] ] } },
{ "type": "Feature", "properties": { "cell_id": "c_10_05", "grid_id": 65, "quartier_majoritaire": "Servitude climatique 1", "paved": 0.0, "bldgs": 0.0, "evetr": 0.506, "dectr": 0.436, "bsoil": 0.058, "population": 0.0, "popdens_hab_ha": 0.0 }, "geometry": { "type": "Polygon", "coordinates": [ [ [ -17.004907655107033, 14.770798618014606 ], [ -17.00491594334126, 14.771702202135547 ], [ -17.005844560305643, 14.771694135191712 ], [ -17.005836268238831, 14.770790551585947 ], [ -17.004907655107033, 14.770798618014606 ] ] ] } },
{ "type": "Feature", "properties": { "cell_id": "c_11_05", "grid_id": 66, "quartier_majoritaire": "Servitude climatique 1", "paved": 0.0, "bldgs": 0.0, "evetr": 0.507, "dectr": 0.343, "bsoil": 0.15, "population": 0.0, "popdens_hab_ha": 0.0 }, "geometry": { "type": "Polygon", "coordinates": [ [ [ -17.003979041411018, 14.77080668071379 ], [ -17.003987325812645, 14.771710265349673 ], [ -17.00491594334126, 14.771702202135547 ], [ -17.004907655107033, 14.770798618014606 ], [ -17.003979041411018, 14.77080668071379 ] ] ] } },
{ "type": "Feature", "properties": { "cell_id": "c_01_06", "grid_id": 67, "quartier_majoritaire": "Servitude climatique 1", "paved": 0.0, "bldgs": 0.0, "evetr": 0.166, "dectr": 0.026, "bsoil": 0.808, "population": 0.0, "popdens_hab_ha": 0.0 }, "geometry": { "type": "Polygon", "coordinates": [ [ [ -17.013256830789576, 14.769822306346104 ], [ -17.01326515295013, 14.770725885897063 ], [ -17.014193760992249, 14.770717785903651 ], [ -17.014185434999462, 14.769814206870013 ], [ -17.013256830789576, 14.769822306346104 ] ] ] } },
{ "type": "Feature", "properties": { "cell_id": "c_02_06", "grid_id": 68, "quartier_majoritaire": "Servitude climatique 1", "paved": 0.044, "bldgs": 0.073, "evetr": 0.328, "dectr": 0.16, "bsoil": 0.395, "population": 25.6, "popdens_hab_ha": 25.6 }, "geometry": { "type": "Polygon", "coordinates": [ [ [ -17.012328226013135, 14.769830402093064 ], [ -17.012336544341451, 14.770733982161097 ], [ -17.01326515295013, 14.770725885897063 ], [ -17.013256830789576, 14.769822306346104 ], [ -17.012328226013135, 14.769830402093064 ] ] ] } },
{ "type": "Feature", "properties": { "cell_id": "c_03_06", "grid_id": 69, "quartier_majoritaire": "Quartier 2", "paved": 0.122, "bldgs": 0.237, "evetr": 0.459, "dectr": 0.1, "bsoil": 0.082, "population": 102.4, "popdens_hab_ha": 102.4 }, "geometry": { "type": "Polygon", "coordinates": [ [ [ -17.011399620670403, 14.76983849411087 ], [ -17.011407935166471, 14.770742074695749 ], [ -17.012336544341451, 14.770733982161097 ], [ -17.012328226013135, 14.769830402093064 ], [ -17.011399620670403, 14.76983849411087 ] ] ] } },
{ "type": "Feature", "properties": { "cell_id": "c_04_06", "grid_id": 70, "quartier_majoritaire": "Quartier 2", "paved": 0.161, "bldgs": 0.174, "evetr": 0.268, "dectr": 0.088, "bsoil": 0.309, "population": 70.4, "popdens_hab_ha": 70.4 }, "geometry": { "type": "Polygon", "coordinates": [ [ [ -17.010471014761642, 14.769846582399518 ], [ -17.010479325425447, 14.770750163500995 ], [ -17.011407935166471, 14.770742074695749 ], [ -17.011399620670403, 14.76983849411087 ], [ -17.010471014761642, 14.769846582399518 ] ] ] } },
{ "type": "Feature", "properties": { "cell_id": "c_05_06", "grid_id": 71, "quartier_majoritaire": "Quartier 6", "paved": 0.01, "bldgs": 0.001, "evetr": 0.21, "dectr": 0.114, "bsoil": 0.665, "population": 0.0, "popdens_hab_ha": 0.0 }, "geometry": { "type": "Polygon", "coordinates": [ [ [ -17.009542408287107, 14.769854666959002 ], [ -17.009550715118642, 14.770758248576835 ], [ -17.010479325425447, 14.770750163500995 ], [ -17.010471014761642, 14.769846582399518 ], [ -17.009542408287107, 14.769854666959002 ] ] ] } },
{ "type": "Feature", "properties": { "cell_id": "c_06_06", "grid_id": 72, "quartier_majoritaire": "Servitude climatique 1", "paved": 0.0, "bldgs": 0.0, "evetr": 0.402, "dectr": 0.414, "bsoil": 0.184, "population": 0.0, "popdens_hab_ha": 0.0 }, "geometry": { "type": "Polygon", "coordinates": [ [ [ -17.008613801247066, 14.769862747789302 ], [ -17.008622104246317, 14.770766329923267 ], [ -17.009550715118642, 14.770758248576835 ], [ -17.009542408287107, 14.769854666959002 ], [ -17.008613801247066, 14.769862747789302 ] ] ] } },
{ "type": "Feature", "properties": { "cell_id": "c_07_06", "grid_id": 73, "quartier_majoritaire": "Servitude climatique 1", "paved": 0.01, "bldgs": 0.0, "evetr": 0.596, "dectr": 0.394, "bsoil": 0.0, "population": 0.0, "popdens_hab_ha": 0.0 }, "geometry": { "type": "Polygon", "coordinates": [ [ [ -17.007685193641777, 14.769870824890416 ], [ -17.007693492808734, 14.770774407540268 ], [ -17.008622104246317, 14.770766329923267 ], [ -17.008613801247066, 14.769862747789302 ], [ -17.007685193641777, 14.769870824890416 ] ] ] } },
{ "type": "Feature", "properties": { "cell_id": "c_08_06", "grid_id": 74, "quartier_majoritaire": "Quartier 1", "paved": 0.03, "bldgs": 0.054, "evetr": 0.582, "dectr": 0.334, "bsoil": 0.0, "population": 128.0, "popdens_hab_ha": 128.0 }, "geometry": { "type": "Polygon", "coordinates": [ [ [ -17.006756585471496, 14.769878898262331 ], [ -17.006764880806148, 14.770782481427831 ], [ -17.007693492808734, 14.770774407540268 ], [ -17.007685193641777, 14.769870824890416 ], [ -17.006756585471496, 14.769878898262331 ] ] ] } },
{ "type": "Feature", "properties": { "cell_id": "c_09_06", "grid_id": 75, "quartier_majoritaire": "Quartier 1", "paved": 0.006, "bldgs": 0.143, "evetr": 0.37, "dectr": 0.271, "bsoil": 0.21, "population": 243.2, "popdens_hab_ha": 243.2 }, "geometry": { "type": "Polygon", "coordinates": [ [ [ -17.005827976736494, 14.769886967905038 ], [ -17.005836268238831, 14.770790551585947 ], [ -17.006764880806148, 14.770782481427831 ], [ -17.006756585471496, 14.769878898262331 ], [ -17.005827976736494, 14.769886967905038 ] ] ] } },
{ "type": "Feature", "properties": { "cell_id": "c_10_06", "grid_id": 76, "quartier_majoritaire": "Quartier 1", "paved": 0.032, "bldgs": 0.166, "evetr": 0.279, "dectr": 0.183, "bsoil": 0.34, "population": 102.4, "popdens_hab_ha": 102.4 }, "geometry": { "type": "Polygon", "coordinates": [ [ [ -17.004899367437023, 14.769895033818525 ], [ -17.004907655107033, 14.770798618014606 ], [ -17.005836268238831, 14.770790551585947 ], [ -17.005827976736494, 14.769886967905038 ], [ -17.004899367437023, 14.769895033818525 ] ] ] } },
{ "type": "Feature", "properties": { "cell_id": "c_11_06", "grid_id": 77, "quartier_majoritaire": "Quartier 1", "paved": 0.032, "bldgs": 0.176, "evetr": 0.13, "dectr": 0.111, "bsoil": 0.551, "population": 128.0, "popdens_hab_ha": 128.0 }, "geometry": { "type": "Polygon", "coordinates": [ [ [ -17.003970757573349, 14.76990309600278 ], [ -17.003979041411018, 14.77080668071379 ], [ -17.004907655107033, 14.770798618014606 ], [ -17.004899367437023, 14.769895033818525 ], [ -17.003970757573349, 14.76990309600278 ] ] ] } },
{ "type": "Feature", "properties": { "cell_id": "c_01_07", "grid_id": 78, "quartier_majoritaire": "Servitude climatique 1", "paved": 0.0, "bldgs": 0.0, "evetr": 0.257, "dectr": 0.112, "bsoil": 0.631, "population": 0.0, "popdens_hab_ha": 0.0 }, "geometry": { "type": "Polygon", "coordinates": [ [ [ -17.01324850919557, 14.768918726719987 ], [ -17.013256830789576, 14.769822306346104 ], [ -17.014185434999462, 14.769814206870013 ], [ -17.014177109573492, 14.768910627761205 ], [ -17.01324850919557, 14.768918726719987 ] ] ] } },
{ "type": "Feature", "properties": { "cell_id": "c_02_07", "grid_id": 79, "quartier_majoritaire": "Servitude climatique 1", "paved": 0.021, "bldgs": 0.084, "evetr": 0.238, "dectr": 0.182, "bsoil": 0.475, "population": 147.2, "popdens_hab_ha": 147.2 }, "geometry": { "type": "Polygon", "coordinates": [ [ [ -17.012319908251108, 14.768926821949872 ], [ -17.012328226013135, 14.769830402093064 ], [ -17.013256830789576, 14.769822306346104 ], [ -17.01324850919557, 14.768918726719987 ], [ -17.012319908251108, 14.768926821949872 ] ] ] } },
{ "type": "Feature", "properties": { "cell_id": "c_03_07", "grid_id": 80, "quartier_majoritaire": "Quartier 2", "paved": 0.102, "bldgs": 0.192, "evetr": 0.123, "dectr": 0.14, "bsoil": 0.443, "population": 300.8, "popdens_hab_ha": 300.8 }, "geometry": { "type": "Polygon", "coordinates": [ [ [ -17.011391306740368, 14.768934913450845 ], [ -17.011399620670403, 14.76983849411087 ], [ -17.012328226013135, 14.769830402093064 ], [ -17.012319908251108, 14.768926821949872 ], [ -17.011391306740368, 14.768934913450845 ] ] ] } },
{ "type": "Feature", "properties": { "cell_id": "c_04_07", "grid_id": 81, "quartier_majoritaire": "Quartier 2", "paved": 0.092, "bldgs": 0.144, "evetr": 0.21, "dectr": 0.08, "bsoil": 0.474, "population": 275.2, "popdens_hab_ha": 275.2 }, "geometry": { "type": "Polygon", "coordinates": [ [ [ -17.010462704663603, 14.768943001222897 ], [ -17.010471014761642, 14.769846582399518 ], [ -17.011399620670403, 14.76983849411087 ], [ -17.011391306740368, 14.768934913450845 ], [ -17.010462704663603, 14.768943001222897 ] ] ] } },
{ "type": "Feature", "properties": { "cell_id": "c_05_07", "grid_id": 82, "quartier_majoritaire": "Servitude climatique 1", "paved": 0.073, "bldgs": 0.0, "evetr": 0.604, "dectr": 0.211, "bsoil": 0.112, "population": 0.0, "popdens_hab_ha": 0.0 }, "geometry": { "type": "Polygon", "coordinates": [ [ [ -17.009534102021082, 14.768951085266018 ], [ -17.009542408287107, 14.769854666959002 ], [ -17.010471014761642, 14.769846582399518 ], [ -17.010462704663603, 14.768943001222897 ], [ -17.009534102021082, 14.768951085266018 ] ] ] } },
{ "type": "Feature", "properties": { "cell_id": "c_06_07", "grid_id": 83, "quartier_majoritaire": "Servitude climatique 1", "paved": 0.0, "bldgs": 0.0, "evetr": 0.649, "dectr": 0.296, "bsoil": 0.055, "population": 0.0, "popdens_hab_ha": 0.0 }, "geometry": { "type": "Polygon", "coordinates": [ [ [ -17.008605498813061, 14.768959165580201 ], [ -17.008613801247066, 14.769862747789302 ], [ -17.009542408287107, 14.769854666959002 ], [ -17.009534102021082, 14.768951085266018 ], [ -17.008605498813061, 14.768959165580201 ] ] ] } },
{ "type": "Feature", "properties": { "cell_id": "c_07_07", "grid_id": 84, "quartier_majoritaire": "Quartier 1", "paved": 0.099, "bldgs": 0.039, "evetr": 0.521, "dectr": 0.193, "bsoil": 0.148, "population": 38.4, "popdens_hab_ha": 38.4 }, "geometry": { "type": "Polygon", "coordinates": [ [ [ -17.007676895039804, 14.768967242165429 ], [ -17.007685193641777, 14.769870824890416 ], [ -17.008613801247066, 14.769862747789302 ], [ -17.008605498813061, 14.768959165580201 ], [ -17.007676895039804, 14.768967242165429 ] ] ] } },
{ "type": "Feature", "properties": { "cell_id": "c_08_07", "grid_id": 85, "quartier_majoritaire": "Quartier 1", "paved": 0.072, "bldgs": 0.177, "evetr": 0.274, "dectr": 0.116, "bsoil": 0.361, "population": 236.8, "popdens_hab_ha": 236.8 }, "geometry": { "type": "Polygon", "coordinates": [ [ [ -17.006748290701569, 14.768975315021706 ], [ -17.006756585471496, 14.769878898262331 ], [ -17.007685193641777, 14.769870824890416 ], [ -17.007676895039804, 14.768967242165429 ], [ -17.006748290701569, 14.768975315021706 ] ] ] } },
{ "type": "Feature", "properties": { "cell_id": "c_09_07", "grid_id": 86, "quartier_majoritaire": "Quartier 1", "paved": 0.145, "bldgs": 0.169, "evetr": 0.066, "dectr": 0.0, "bsoil": 0.62, "population": 64.0, "popdens_hab_ha": 64.0 }, "geometry": { "type": "Polygon", "coordinates": [ [ [ -17.005819685798624, 14.768983384149006 ], [ -17.005827976736494, 14.769886967905038 ], [ -17.006756585471496, 14.769878898262331 ], [ -17.006748290701569, 14.768975315021706 ], [ -17.005819685798624, 14.768983384149006 ] ] ] } },
{ "type": "Feature", "properties": { "cell_id": "c_10_07", "grid_id": 87, "quartier_majoritaire": "Quartier 1", "paved": 0.063, "bldgs": 0.206, "evetr": 0.197, "dectr": 0.122, "bsoil": 0.412, "population": 211.2, "popdens_hab_ha": 211.2 }, "geometry": { "type": "Polygon", "coordinates": [ [ [ -17.00489108033122, 14.76899144954732 ], [ -17.004899367437023, 14.769895033818525 ], [ -17.005827976736494, 14.769886967905038 ], [ -17.005819685798624, 14.768983384149006 ], [ -17.00489108033122, 14.76899144954732 ] ] ] } },
{ "type": "Feature", "properties": { "cell_id": "c_11_07", "grid_id": 88, "quartier_majoritaire": "Quartier 1", "paved": 0.018, "bldgs": 0.13, "evetr": 0.341, "dectr": 0.196, "bsoil": 0.315, "population": 192.0, "popdens_hab_ha": 192.0 }, "geometry": { "type": "Polygon", "coordinates": [ [ [ -17.003962474299623, 14.768999511216647 ], [ -17.003970757573349, 14.76990309600278 ], [ -17.004899367437023, 14.769895033818525 ], [ -17.00489108033122, 14.76899144954732 ], [ -17.003962474299623, 14.768999511216647 ] ] ] } },
{ "type": "Feature", "properties": { "cell_id": "c_01_08", "grid_id": 89, "quartier_majoritaire": "Servitude climatique 1", "paved": 0.0, "bldgs": 0.0, "evetr": 0.103, "dectr": 0.05, "bsoil": 0.847, "population": 0.0, "popdens_hab_ha": 0.0 }, "geometry": { "type": "Polygon", "coordinates": [ [ [ -17.013240188168108, 14.768015147018708 ], [ -17.01324850919557, 14.768918726719987 ], [ -17.014177109573492, 14.768910627761205 ], [ -17.014168784714322, 14.768007048577237 ], [ -17.013240188168108, 14.768015147018708 ] ] ] } },
{ "type": "Feature", "properties": { "cell_id": "c_02_08", "grid_id": 90, "quartier_majoritaire": "Servitude climatique 1", "paved": 0.0, "bldgs": 0.0, "evetr": 0.387, "dectr": 0.202, "bsoil": 0.411, "population": 0.0, "popdens_hab_ha": 0.0 }, "geometry": { "type": "Polygon", "coordinates": [ [ [ -17.012311591055362, 14.768023241731521 ], [ -17.012319908251108, 14.768926821949872 ], [ -17.01324850919557, 14.768918726719987 ], [ -17.013240188168108, 14.768015147018708 ], [ -17.012311591055362, 14.768023241731521 ] ] ] } },
{ "type": "Feature", "properties": { "cell_id": "c_03_08", "grid_id": 91, "quartier_majoritaire": "Servitude climatique 1", "paved": 0.0, "bldgs": 0.0, "evetr": 0.525, "dectr": 0.441, "bsoil": 0.034, "population": 0.0, "popdens_hab_ha": 0.0 }, "geometry": { "type": "Polygon", "coordinates": [ [ [ -17.011382993376348, 14.768031332715664 ], [ -17.011391306740368, 14.768934913450845 ], [ -17.012319908251108, 14.768926821949872 ], [ -17.012311591055362, 14.768023241731521 ], [ -17.011382993376348, 14.768031332715664 ] ] ] } },
{ "type": "Feature", "properties": { "cell_id": "c_04_08", "grid_id": 92, "quartier_majoritaire": "Servitude climatique 1", "paved": 0.0, "bldgs": 0.0, "evetr": 0.609, "dectr": 0.386, "bsoil": 0.005, "population": 0.0, "popdens_hab_ha": 0.0 }, "geometry": { "type": "Polygon", "coordinates": [ [ [ -17.010454395131326, 14.768039419971121 ], [ -17.010462704663603, 14.768943001222897 ], [ -17.011391306740368, 14.768934913450845 ], [ -17.011382993376348, 14.768031332715664 ], [ -17.010454395131326, 14.768039419971121 ] ] ] } },
{ "type": "Feature", "properties": { "cell_id": "c_05_08", "grid_id": 93, "quartier_majoritaire": "Servitude climatique 1", "paved": 0.044, "bldgs": 0.0, "evetr": 0.61, "dectr": 0.328, "bsoil": 0.018, "population": 0.0, "popdens_hab_ha": 0.0 }, "geometry": { "type": "Polygon", "coordinates": [ [ [ -17.009525796320553, 14.768047503497892 ], [ -17.009534102021082, 14.768951085266018 ], [ -17.010462704663603, 14.768943001222897 ], [ -17.010454395131326, 14.768039419971121 ], [ -17.009525796320553, 14.768047503497892 ] ] ] } },
{ "type": "Feature", "properties": { "cell_id": "c_06_08", "grid_id": 94, "quartier_majoritaire": "Quartier A", "paved": 0.036, "bldgs": 0.0, "evetr": 0.246, "dectr": 0.134, "bsoil": 0.584, "population": 0.0, "popdens_hab_ha": 0.0 }, "geometry": { "type": "Polygon", "coordinates": [ [ [ -17.008597196944294, 14.768055583295959 ], [ -17.008605498813061, 14.768959165580201 ], [ -17.009534102021082, 14.768951085266018 ], [ -17.009525796320553, 14.768047503497892 ], [ -17.008597196944294, 14.768055583295959 ] ] ] } },
{ "type": "Feature", "properties": { "cell_id": "c_07_08", "grid_id": 95, "quartier_majoritaire": "Quartier A", "paved": 0.238, "bldgs": 0.141, "evetr": 0.0, "dectr": 0.004, "bsoil": 0.617, "population": 0.0, "popdens_hab_ha": 0.0 }, "geometry": { "type": "Polygon", "coordinates": [ [ [ -17.007668597002812, 14.768063659365314 ], [ -17.007676895039804, 14.768967242165429 ], [ -17.008605498813061, 14.768959165580201 ], [ -17.008597196944294, 14.768055583295959 ], [ -17.007668597002812, 14.768063659365314 ] ] ] } },
{ "type": "Feature", "properties": { "cell_id": "c_08_08", "grid_id": 96, "quartier_majoritaire": "Quartier A", "paved": 0.166, "bldgs": 0.406, "evetr": 0.0, "dectr": 0.0, "bsoil": 0.428, "population": 0.0, "popdens_hab_ha": 0.0 }, "geometry": { "type": "Polygon", "coordinates": [ [ [ -17.006739996496361, 14.768071731705943 ], [ -17.006748290701569, 14.768975315021706 ], [ -17.007676895039804, 14.768967242165429 ], [ -17.007668597002812, 14.768063659365314 ], [ -17.006739996496361, 14.768071731705943 ] ] ] } },
{ "type": "Feature", "properties": { "cell_id": "c_09_08", "grid_id": 97, "quartier_majoritaire": "Quartier A", "paved": 0.185, "bldgs": 0.266, "evetr": 0.207, "dectr": 0.054, "bsoil": 0.288, "population": 25.6, "popdens_hab_ha": 25.6 }, "geometry": { "type": "Polygon", "coordinates": [ [ [ -17.005811395425209, 14.768079800317841 ], [ -17.005819685798624, 14.768983384149006 ], [ -17.006748290701569, 14.768975315021706 ], [ -17.006739996496361, 14.768071731705943 ], [ -17.005811395425209, 14.768079800317841 ] ] ] } },
{ "type": "Feature", "properties": { "cell_id": "c_10_08", "grid_id": 98, "quartier_majoritaire": "Quartier A", "paved": 0.042, "bldgs": 0.07, "evetr": 0.396, "dectr": 0.297, "bsoil": 0.195, "population": 32.0, "popdens_hab_ha": 32.0 }, "geometry": { "type": "Polygon", "coordinates": [ [ [ -17.004882793789609, 14.768087865200997 ], [ -17.00489108033122, 14.76899144954732 ], [ -17.005819685798624, 14.768983384149006 ], [ -17.005811395425209, 14.768079800317841 ], [ -17.004882793789609, 14.768087865200997 ] ] ] } },
{ "type": "Feature", "properties": { "cell_id": "c_11_08", "grid_id": 99, "quartier_majoritaire": "Quartier A", "paved": 0.0, "bldgs": 0.0, "evetr": 0.48, "dectr": 0.139, "bsoil": 0.381, "population": 0.0, "popdens_hab_ha": 0.0 }, "geometry": { "type": "Polygon", "coordinates": [ [ [ -17.003954191589827, 14.768095926355395 ], [ -17.003962474299623, 14.768999511216647 ], [ -17.00489108033122, 14.76899144954732 ], [ -17.004882793789609, 14.768087865200997 ], [ -17.003954191589827, 14.768095926355395 ] ] ] } },
{ "type": "Feature", "properties": { "cell_id": "c_01_09", "grid_id": 100, "quartier_majoritaire": "Servitude climatique 1", "paved": 0.0, "bldgs": 0.0, "evetr": 0.0, "dectr": 0.0, "bsoil": 1.0, "population": 0.0, "popdens_hab_ha": 0.0 }, "geometry": { "type": "Polygon", "coordinates": [ [ [ -17.013231867707173, 14.767111567242273 ], [ -17.013240188168108, 14.768015147018708 ], [ -17.014168784714322, 14.768007048577237 ], [ -17.014160460421945, 14.767103469318103 ], [ -17.013231867707173, 14.767111567242273 ] ] ] } },
{ "type": "Feature", "properties": { "cell_id": "c_02_09", "grid_id": 101, "quartier_majoritaire": "Servitude climatique 1", "paved": 0.0, "bldgs": 0.0, "evetr": 0.322, "dectr": 0.127, "bsoil": 0.551, "population": 0.0, "popdens_hab_ha": 0.0 }, "geometry": { "type": "Polygon", "coordinates": [ [ [ -17.012303274425886, 14.76711966143802 ], [ -17.012311591055362, 14.768023241731521 ], [ -17.013240188168108, 14.768015147018708 ], [ -17.013231867707173, 14.767111567242273 ], [ -17.012303274425886, 14.76711966143802 ] ] ] } },
{ "type": "Feature", "properties": { "cell_id": "c_03_09", "grid_id": 102, "quartier_majoritaire": "Servitude climatique 1", "paved": 0.0, "bldgs": 0.002, "evetr": 0.589, "dectr": 0.402, "bsoil": 0.007, "population": 0.0, "popdens_hab_ha": 0.0 }, "geometry": { "type": "Polygon", "coordinates": [ [ [ -17.011374680578339, 14.767127751905335 ], [ -17.011382993376348, 14.768031332715664 ], [ -17.012311591055362, 14.768023241731521 ], [ -17.012303274425886, 14.76711966143802 ], [ -17.011374680578339, 14.767127751905335 ] ] ] } },
{ "type": "Feature", "properties": { "cell_id": "c_04_09", "grid_id": 103, "quartier_majoritaire": "Servitude climatique 1", "paved": 0.0, "bldgs": 0.095, "evetr": 0.559, "dectr": 0.284, "bsoil": 0.062, "population": 38.4, "popdens_hab_ha": 38.4 }, "geometry": { "type": "Polygon", "coordinates": [ [ [ -17.010446086164794, 14.767135838644206 ], [ -17.010454395131326, 14.768039419971121 ], [ -17.011382993376348, 14.768031332715664 ], [ -17.011374680578339, 14.767127751905335 ], [ -17.010446086164794, 14.767135838644206 ] ] ] } },
{ "type": "Feature", "properties": { "cell_id": "c_05_09", "grid_id": 104, "quartier_majoritaire": "Quartier A", "paved": 0.131, "bldgs": 0.057, "evetr": 0.21, "dectr": 0.148, "bsoil": 0.454, "population": 19.2, "popdens_hab_ha": 19.2 }, "geometry": { "type": "Polygon", "coordinates": [ [ [ -17.009517491185512, 14.767143921654624 ], [ -17.009525796320553, 14.768047503497892 ], [ -17.010454395131326, 14.768039419971121 ], [ -17.010446086164794, 14.767135838644206 ], [ -17.009517491185512, 14.767143921654624 ] ] ] } },
{ "type": "Feature", "properties": { "cell_id": "c_06_09", "grid_id": 105, "quartier_majoritaire": "Quartier A", "paved": 0.223, "bldgs": 0.141, "evetr": 0.055, "dectr": 0.0, "bsoil": 0.581, "population": 38.4, "popdens_hab_ha": 38.4 }, "geometry": { "type": "Polygon", "coordinates": [ [ [ -17.008588895640756, 14.76715200093658 ], [ -17.008597196944294, 14.768055583295959 ], [ -17.009525796320553, 14.768047503497892 ], [ -17.009517491185512, 14.767143921654624 ], [ -17.008588895640756, 14.76715200093658 ] ] ] } },
{ "type": "Feature", "properties": { "cell_id": "c_07_09", "grid_id": 106, "quartier_majoritaire": "Quartier A", "paved": 0.236, "bldgs": 0.107, "evetr": 0.125, "dectr": 0.0, "bsoil": 0.532, "population": 0.0, "popdens_hab_ha": 0.0 }, "geometry": { "type": "Polygon", "coordinates": [ [ [ -17.007660299530784, 14.767160076490057 ], [ -17.007668597002812, 14.768063659365314 ], [ -17.008597196944294, 14.768055583295959 ], [ -17.008588895640756, 14.76715200093658 ], [ -17.007660299530784, 14.767160076490057 ] ] ] } },
{ "type": "Feature", "properties": { "cell_id": "c_08_09", "grid_id": 107, "quartier_majoritaire": "Quartier A", "paved": 0.243, "bldgs": 0.174, "evetr": 0.1, "dectr": 0.0, "bsoil": 0.483, "population": 0.0, "popdens_hab_ha": 0.0 }, "geometry": { "type": "Polygon", "coordinates": [ [ [ -17.006731702855856, 14.767168148315054 ], [ -17.006739996496361, 14.768071731705943 ], [ -17.007668597002812, 14.768063659365314 ], [ -17.007660299530784, 14.767160076490057 ], [ -17.006731702855856, 14.767168148315054 ] ] ] } },
{ "type": "Feature", "properties": { "cell_id": "c_09_09", "grid_id": 108, "quartier_majoritaire": "Quartier A", "paved": 0.169, "bldgs": 0.203, "evetr": 0.103, "dectr": 0.0, "bsoil": 0.525, "population": 0.0, "popdens_hab_ha": 0.0 }, "geometry": { "type": "Polygon", "coordinates": [ [ [ -17.005803105616238, 14.767176216411555 ], [ -17.005811395425209, 14.768079800317841 ], [ -17.006739996496361, 14.768071731705943 ], [ -17.006731702855856, 14.767168148315054 ], [ -17.005803105616238, 14.767176216411555 ] ] ] } },
{ "type": "Feature", "properties": { "cell_id": "c_10_09", "grid_id": 109, "quartier_majoritaire": "Quartier A", "paved": 0.0, "bldgs": 0.181, "evetr": 0.337, "dectr": 0.058, "bsoil": 0.424, "population": 0.0, "popdens_hab_ha": 0.0 }, "geometry": { "type": "Polygon", "coordinates": [ [ [ -17.004874507812183, 14.767184280779549 ], [ -17.004882793789609, 14.768087865200997 ], [ -17.005811395425209, 14.768079800317841 ], [ -17.005803105616238, 14.767176216411555 ], [ -17.004874507812183, 14.767184280779549 ] ] ] } },
{ "type": "Feature", "properties": { "cell_id": "c_11_09", "grid_id": 110, "quartier_majoritaire": "Quartier A", "paved": 0.0, "bldgs": 0.0, "evetr": 0.277, "dectr": 0.187, "bsoil": 0.536, "population": 0.0, "popdens_hab_ha": 0.0 }, "geometry": { "type": "Polygon", "coordinates": [ [ [ -17.003945909443956, 14.767192341419026 ], [ -17.003954191589827, 14.768095926355395 ], [ -17.004882793789609, 14.768087865200997 ], [ -17.004874507812183, 14.767184280779549 ], [ -17.003945909443956, 14.767192341419026 ] ] ] } },
{ "type": "Feature", "properties": { "cell_id": "c_01_10", "grid_id": 111, "quartier_majoritaire": "Servitude climatique 1", "paved": 0.0, "bldgs": 0.0, "evetr": 0.279, "dectr": 0.247, "bsoil": 0.474, "population": 0.0, "popdens_hab_ha": 0.0 }, "geometry": { "type": "Polygon", "coordinates": [ [ [ -17.013223547812764, 14.766207987390688 ], [ -17.013231867707173, 14.767111567242273 ], [ -17.014160460421945, 14.767103469318103 ], [ -17.014152136696346, 14.766199889983818 ], [ -17.013223547812764, 14.766207987390688 ] ] ] } },
{ "type": "Feature", "properties": { "cell_id": "c_02_10", "grid_id": 112, "quartier_majoritaire": "Servitude climatique 1", "paved": 0.009, "bldgs": 0.0, "evetr": 0.545, "dectr": 0.356, "bsoil": 0.09, "population": 0.0, "popdens_hab_ha": 0.0 }, "geometry": { "type": "Polygon", "coordinates": [ [ [ -17.012294958362666, 14.766216081069377 ], [ -17.012303274425886, 14.76711966143802 ], [ -17.013231867707173, 14.767111567242273 ], [ -17.013223547812764, 14.766207987390688 ], [ -17.012294958362666, 14.766216081069377 ] ] ] } },
{ "type": "Feature", "properties": { "cell_id": "c_03_10", "grid_id": 113, "quartier_majoritaire": "Quartier A", "paved": 0.105, "bldgs": 0.227, "evetr": 0.193, "dectr": 0.022, "bsoil": 0.453, "population": 76.8, "popdens_hab_ha": 76.8 }, "geometry": { "type": "Polygon", "coordinates": [ [ [ -17.011366368346327, 14.766224171019866 ], [ -17.011374680578339, 14.767127751905335 ], [ -17.012303274425886, 14.76711966143802 ], [ -17.012294958362666, 14.766216081069377 ], [ -17.011366368346327, 14.766224171019866 ] ] ] } },
{ "type": "Feature", "properties": { "cell_id": "c_04_10", "grid_id": 114, "quartier_majoritaire": "Quartier A", "paved": 0.13, "bldgs": 0.238, "evetr": 0.082, "dectr": 0.0, "bsoil": 0.55, "population": 38.4, "popdens_hab_ha": 38.4 }, "geometry": { "type": "Polygon", "coordinates": [ [ [ -17.010437777764, 14.766232257242162 ], [ -17.010446086164794, 14.767135838644206 ], [ -17.011374680578339, 14.767127751905335 ], [ -17.011366368346327, 14.766224171019866 ], [ -17.010437777764, 14.766232257242162 ] ] ] } },
{ "type": "Feature", "properties": { "cell_id": "c_05_10", "grid_id": 115, "quartier_majoritaire": "Quartier A", "paved": 0.161, "bldgs": 0.243, "evetr": 0.192, "dectr": 0.0, "bsoil": 0.404, "population": 0.0, "popdens_hab_ha": 0.0 }, "geometry": { "type": "Polygon", "coordinates": [ [ [ -17.009509186615947, 14.76624033973623 ], [ -17.009517491185512, 14.767143921654624 ], [ -17.010446086164794, 14.767135838644206 ], [ -17.010437777764, 14.766232257242162 ], [ -17.009509186615947, 14.76624033973623 ] ] ] } },
{ "type": "Feature", "properties": { "cell_id": "c_06_10", "grid_id": 116, "quartier_majoritaire": "Quartier A", "paved": 0.292, "bldgs": 0.225, "evetr": 0.061, "dectr": 0.035, "bsoil": 0.387, "population": 0.0, "popdens_hab_ha": 0.0 }, "geometry": { "type": "Polygon", "coordinates": [ [ [ -17.00858059490243, 14.766248418502075 ], [ -17.008588895640756, 14.76715200093658 ], [ -17.009517491185512, 14.767143921654624 ], [ -17.009509186615947, 14.76624033973623 ], [ -17.00858059490243, 14.766248418502075 ] ] ] } },
{ "type": "Feature", "properties": { "cell_id": "c_07_10", "grid_id": 117, "quartier_majoritaire": "Quartier A", "paved": 0.174, "bldgs": 0.254, "evetr": 0.142, "dectr": 0.158, "bsoil": 0.272, "population": 0.0, "popdens_hab_ha": 0.0 }, "geometry": { "type": "Polygon", "coordinates": [ [ [ -17.007652002623708, 14.766256493539684 ], [ -17.007660299530784, 14.767160076490057 ], [ -17.008588895640756, 14.76715200093658 ], [ -17.00858059490243, 14.766248418502075 ], [ -17.007652002623708, 14.766256493539684 ] ] ] } },
{ "type": "Feature", "properties": { "cell_id": "c_08_10", "grid_id": 118, "quartier_majoritaire": "Quartier A", "paved": 0.187, "bldgs": 0.148, "evetr": 0.256, "dectr": 0.13, "bsoil": 0.279, "population": 0.0, "popdens_hab_ha": 0.0 }, "geometry": { "type": "Polygon", "coordinates": [ [ [ -17.006723409780044, 14.766264564849049 ], [ -17.006731702855856, 14.767168148315054 ], [ -17.007660299530784, 14.767160076490057 ], [ -17.007652002623708, 14.766256493539684 ], [ -17.006723409780044, 14.766264564849049 ] ] ] } },
{ "type": "Feature", "properties": { "cell_id": "c_09_10", "grid_id": 119, "quartier_majoritaire": "Quartier A", "paved": 0.359, "bldgs": 0.036, "evetr": 0.222, "dectr": 0.133, "bsoil": 0.25, "population": 0.0, "popdens_hab_ha": 0.0 }, "geometry": { "type": "Polygon", "coordinates": [ [ [ -17.005794816371697, 14.766272632430152 ], [ -17.005803105616238, 14.767176216411555 ], [ -17.006731702855856, 14.767168148315054 ], [ -17.006723409780044, 14.766264564849049 ], [ -17.005794816371697, 14.766272632430152 ] ] ] } },
{ "type": "Feature", "properties": { "cell_id": "c_10_10", "grid_id": 120, "quartier_majoritaire": "Quartier A", "paved": 0.146, "bldgs": 0.014, "evetr": 0.233, "dectr": 0.144, "bsoil": 0.463, "population": 0.0, "popdens_hab_ha": 0.0 }, "geometry": { "type": "Polygon", "coordinates": [ [ [ -17.004866222398928, 14.76628069628299 ], [ -17.004874507812183, 14.767184280779549 ], [ -17.005803105616238, 14.767176216411555 ], [ -17.005794816371697, 14.766272632430152 ], [ -17.004866222398928, 14.76628069628299 ] ] ] } },
{ "type": "Feature", "properties": { "cell_id": "c_01_11", "grid_id": 121, "quartier_majoritaire": "Quartier A", "paved": 0.032, "bldgs": 0.302, "evetr": 0.186, "dectr": 0.09, "bsoil": 0.39, "population": 0.0, "popdens_hab_ha": 0.0 }, "geometry": { "type": "Polygon", "coordinates": [ [ [ -17.013215228484857, 14.765304407463956 ], [ -17.013223547812764, 14.766207987390688 ], [ -17.014152136696346, 14.766199889983818 ], [ -17.014143813537515, 14.765296310574385 ], [ -17.013215228484857, 14.765304407463956 ] ] ] } },
{ "type": "Feature", "properties": { "cell_id": "c_02_11", "grid_id": 122, "quartier_majoritaire": "Quartier A", "paved": 0.258, "bldgs": 0.174, "evetr": 0.101, "dectr": 0.074, "bsoil": 0.393, "population": 0.0, "popdens_hab_ha": 0.0 }, "geometry": { "type": "Polygon", "coordinates": [ [ [ -17.012286642865696, 14.765312500625589 ], [ -17.012294958362666, 14.766216081069377 ], [ -17.013223547812764, 14.766207987390688 ], [ -17.013215228484857, 14.765304407463956 ], [ -17.012286642865696, 14.765312500625589 ] ] ] } },
{ "type": "Feature", "properties": { "cell_id": "c_03_11", "grid_id": 123, "quartier_majoritaire": "Quartier A", "paved": 0.139, "bldgs": 0.212, "evetr": 0.248, "dectr": 0.082, "bsoil": 0.319, "population": 0.0, "popdens_hab_ha": 0.0 }, "geometry": { "type": "Polygon", "coordinates": [ [ [ -17.011358056680304, 14.765320590059263 ], [ -17.011366368346327, 14.766224171019866 ], [ -17.012294958362666, 14.766216081069377 ], [ -17.012286642865696, 14.765312500625589 ], [ -17.011358056680304, 14.765320590059263 ] ] ] } },
{ "type": "Feature", "properties": { "cell_id": "c_04_11", "grid_id": 124, "quartier_majoritaire": "Quartier A", "paved": 0.233, "bldgs": 0.094, "evetr": 0.256, "dectr": 0.112, "bsoil": 0.305, "population": 0.0, "popdens_hab_ha": 0.0 }, "geometry": { "type": "Polygon", "coordinates": [ [ [ -17.010429469928933, 14.765328675764973 ], [ -17.010437777764, 14.766232257242162 ], [ -17.011366368346327, 14.766224171019866 ], [ -17.011358056680304, 14.765320590059263 ], [ -17.010429469928933, 14.765328675764973 ] ] ] } },
{ "type": "Feature", "properties": { "cell_id": "c_05_11", "grid_id": 125, "quartier_majoritaire": "Quartier A", "paved": 0.271, "bldgs": 0.012, "evetr": 0.267, "dectr": 0.112, "bsoil": 0.338, "population": 0.0, "popdens_hab_ha": 0.0 }, "geometry": { "type": "Polygon", "coordinates": [ [ [ -17.009500882611849, 14.7653367577427 ], [ -17.009509186615947, 14.76624033973623 ], [ -17.010437777764, 14.766232257242162 ], [ -17.010429469928933, 14.765328675764973 ], [ -17.009500882611849, 14.7653367577427 ] ] ] } },
{ "type": "Feature", "properties": { "cell_id": "c_06_11", "grid_id": 126, "quartier_majoritaire": "Quartier A", "paved": 0.151, "bldgs": 0.0, "evetr": 0.217, "dectr": 0.106, "bsoil": 0.526, "population": 0.0, "popdens_hab_ha": 0.0 }, "geometry": { "type": "Polygon", "coordinates": [ [ [ -17.008572294729309, 14.76534483599244 ], [ -17.00858059490243, 14.766248418502075 ], [ -17.009509186615947, 14.76624033973623 ], [ -17.009500882611849, 14.7653367577427 ], [ -17.008572294729309, 14.76534483599244 ] ] ] } },
{ "type": "Feature", "properties": { "cell_id": "c_01_12", "grid_id": 127, "quartier_majoritaire": "Quartier A", "paved": 0.169, "bldgs": 0.062, "evetr": 0.001, "dectr": 0.0, "bsoil": 0.768, "population": 0.0, "popdens_hab_ha": 0.0 }, "geometry": { "type": "Polygon", "coordinates": [ [ [ -17.013206909723447, 14.764400827462079 ], [ -17.013215228484857, 14.765304407463956 ], [ -17.014143813537515, 14.765296310574385 ], [ -17.014135490945446, 14.76439273108979 ], [ -17.013206909723447, 14.764400827462079 ] ] ] } },
{ "type": "Feature", "properties": { "cell_id": "c_02_12", "grid_id": 128, "quartier_majoritaire": "Quartier A", "paved": 0.297, "bldgs": 0.0, "evetr": 0.114, "dectr": 0.116, "bsoil": 0.473, "population": 0.0, "popdens_hab_ha": 0.0 }, "geometry": { "type": "Polygon", "coordinates": [ [ [ -17.012278327934961, 14.764408920106654 ], [ -17.012286642865696, 14.765312500625589 ], [ -17.013215228484857, 14.765304407463956 ], [ -17.013206909723447, 14.764400827462079 ], [ -17.012278327934961, 14.764408920106654 ] ] ] } }
]
}
